ADDRESS,PHONE,POSTAL,LONGITUDE,LATITUDE,NAME
"56 S Arlington Heights Rd, Arlington Heights, Illinois, 60005",(847) 590-5667,60005,-87.98050999999998,42.081810000000075,Liquor Store
"76 S Arlington Heights Rd, Arlington Heights, Illinois, 60005",(847) 253-1111,60005,-87.98050999999998,42.081480000000056,Liquor Store
"14 S Evergreen Ave, Arlington Heights, Illinois, 60005",(847) 255-6395,60005,-87.98170999999996,42.08293000000003,Liquor Store
"624 S Arthur Ave, Arlington Heights, Illinois, 60005",(847) 253-4111,60005,-87.96636999999998,42.07265000000007,Liquor Store
"15 S Dunton Ave, Arlington Heights, Illinois, 60005",(847) 483-0299,60005,-87.98288993724408,42.08209002553525,Liquor Store
"3441 N Arlington Heights Rd, Arlington Heights, Illinois, 60004",(847) 255-6677,60004,-87.98479996999268,42.138389923394364,Liquor Store
"1422 E Hintz Rd, Arlington Heights, Illinois, 60004",(847) 818-1629,60004,-87.96559999999994,42.12448000000006,Liquor Store
"100 E Rand Rd, Arlington Heights, Illinois, 60004",(847) 368-0138,60004,-87.98149999999998,42.11424000000005,Liquor Store
"807 W Rand Rd, Arlington Heights, Illinois, 60004",(224) 764-2444,60004,-87.99270999999999,42.12066000000004,Liquor Store
"1 W Rand Rd, Arlington Heights, Illinois, 60004",(847) 577-2388,60004,-87.9813100227939,42.112350022217036,Liquor Store
"704 E Kensington Rd, Arlington Heights, Illinois, 60004",(847) 454-0130,60004,-87.97419993392587,42.081180076605726,Liquor Store
"1266 E Dundee Rd, Palatine, Illinois, 60074",(847) 991-0083,60074,-88.01314999999994,42.13918000000007,Liquor Store
"1645 N Baldwin Rd, Palatine, Illinois, 60074",(847) 496-5909,60074,-88.01410999999996,42.14310000000006,Liquor Store
"1006 S Elmhurst Rd, Mount Prospect, Illinois, 60056",(847) 290-7528,60056,-87.94217999999995,42.04703000000006,Liquor Store
"1685 Algonquin Rd, Rolling Meadows, Illinois, 60008",(847) 981-9790,60008,-87.99950999999999,42.05490000000003,Liquor Store
"100 E Algonquin Rd, Arlington Heights, Illinois, 60005",(847) 439-5592,60005,-87.98144996494368,42.04363003895144,Liquor Store
"600 E Brook Dr, Arlington Heights, Illinois, 60005",(847) 631-6000,60005,-87.97555999999997,42.03893000000005,Liquor Store
"35 Arlington Heights Rd, Elk Grove Village, Illinois, 60007",(847) 437-1234,60007,-87.98641999999995,42.02689000000004,Liquor Store
"601 N Martingale Rd, Schaumburg, Illinois, 60173",(847) 969-0388,60173,-88.03363000230765,42.039320013993176,Liquor Store
"475 N Martingale Rd, Schaumburg, Illinois, 60173",(847) 310-8007,60173,-88.03555999999998,42.03615000000008,Liquor Store
"1201 Tonne Rd, Elk Grove Village, Illinois, 60007",(847) 364-2040,60007,-87.97913995051701,42.008230000000026,Liquor Store
"6 E Devon Ave, Elk Grove Village, Illinois, 60007",(847) 357-1168,60007,-88.00256999999993,41.99267000000003,Liquor Store
"621 Meacham Rd, Elk Grove Village, Illinois, 60007",(630) 912-2191,60007,-88.04581999999994,42.00721000000004,Liquor Store
"652 Meacham Rd, Elk Grove Village, Illinois, 60007",(847) 584-9008,60007,-88.04587999999995,42.00571000000008,Liquor Store
"2121 Touhy Ave, Elk Grove Village, Illinois, 60007",(847) 595-2929,60007,-87.95093998167813,42.00786996609763,Liquor Store
"950 Chase Ave, Elk Grove Village, Illinois, 60007",(847) 718-0088,60007,-87.97210005107041,42.01003007054623,Liquor Store
"80 E Northwest Hwy, Mount Prospect, Illinois, 60056",(847) 577-6100,60056,-87.93582999999995,42.06325000000004,Liquor Store
"1027 N Elmhurst Rd, Mount Prospect, Illinois, 60056",(224) 735-2296,60056,-87.93678999999997,42.08580000000006,Liquor Store
"10 S Pine St, Mount Prospect, Illinois, 60056",(847) 392-2277,60056,-87.93958999999995,42.06612000000007,Liquor Store
"404 S Maple St, Mount Prospect, Illinois, 60056",(847) 342-6282,60056,-87.93394007386436,42.05877000000004,Liquor Store
"865 E Schaumburg Rd, Schaumburg, Illinois, 60194",(847) 524-5544,60194,-88.05955994835261,42.02734004385711,Liquor Store
"755 N Edgewood Ave, Wood Dale, Illinois, 60191",(630) 475-8118,60191,-87.96534992166352,41.97857999942312,Liquor Store
"1207 Remington Rd, Schaumburg, Illinois, 60173",(847) 884-1522,60173,-88.04954998167808,42.053319940562396,Liquor Store
"871 E Algonquin Rd, Schaumburg, Illinois, 60173",(847) 397-3100,60173,-88.05706007054611,42.072599936090356,Liquor Store
"333 W Northwest Hwy, Palatine, Illinois, 60067",(847) 358-3820,60067,-88.05220999999995,42.12339000000003,Liquor Store
"807 N Quentin Rd, Palatine, Illinois, 60067",(847) 485-7634,60067,-88.06307999999996,42.12548000000004,Liquor Store
"681 E Golf Rd, Schaumburg, Illinois, 60173",(847) 285-3289,60173,-88.06279999999998,42.049510000000055,Liquor Store
"335 W Northwest Hwy, Palatine, Illinois, 60067",(847) 359-2739,60067,-88.05224999999996,42.12340000000006,Liquor Store
"8971 Potter Rd, Des Plaines, Illinois, 60016",(847) 257-7541,60016,-87.85994999999997,42.04289000000006,Liquor Store
"1401 E Oakton St, Des Plaines, Illinois, 60018",(847) 699-7336,60018,-87.88909995614286,42.02406993003082,Liquor Store
"959 E Oakton St, Des Plaines, Illinois, 60018",(847) 827-6700,60018,-87.90018001832185,42.023499919499244,Liquor Store
"1460 Miner St, Des Plaines, Illinois, 60016",(847) 390-7373,60016,-87.88785994113925,42.0417500516474,Liquor Store
"2120 Miner St, Des Plaines, Illinois, 60016",(847) 827-4278,60016,-87.87199999999996,42.039030000000025,Liquor Store
"1512 Market St, Des Plaines, Illinois, 60016",(847) 224-1585,60016,-87.88536999999997,42.04230000000007,Liquor Store
"1259 Rand Rd, Des Plaines, Illinois, 60016",(847) 297-6800,60016,-87.89239999999995,42.05102000000005,Liquor Store
"806 E Camp McDonald Rd, Prospect Heights, Illinois, 60070",(847) 255-0249,60070,-87.91595999999998,42.095220055542576,Liquor Store
"5 S Wolf Rd, Prospect Heights, Illinois, 60070",(847) 297-6651,60070,-87.90745995614289,42.09565001110853,Liquor Store
"3554 Milwaukee Ave, Northbrook, Illinois, 60062",(847) 297-0907,60062,-87.87225999999998,42.088610000000074,Liquor Store
"4220 Commercial Way, Glenview, Illinois, 60025",(847) 635-9960,60025,-87.85965999999996,42.06962000000004,Liquor Store
"3124 Glenview Rd, Glenview, Illinois, 60025",(847) 729-3990,60025,-87.83742999999998,42.073300000000074,Liquor Store
"8600 W Golf Rd, Des Plaines, Illinois, 60016",(847) 759-9805,60016,-87.84074005107044,42.05491993060777,Liquor Store
"1250 S River Rd, Prospect Heights, Illinois, 60070",(847) 693-7323,60070,-87.88768999999996,42.10320000000007,Liquor Store
"5600 Mannheim Rd, Chicago, Illinois, 60666",(773) 894-3535,60666,-87.87872999999996,41.976060000000075,Liquor Store
"7446 W Addison St, Chicago, Illinois, 60634",(773) 895-3872,60634,-87.81366002553517,41.94516000057695,Liquor Store
"6189 Canfield Rd, Chicago, Illinois, 60631",(773) 774-0440,60631,-87.82217999999995,41.99284000000006,Liquor Store
"8750 W Bryn Mawr Ave, Chicago, Illinois, 60631",(773) 693-8750,60631,-87.84539999999998,41.98100000000005,Liquor Store
"7280 W Devon Ave, Chicago, Illinois, 60631",(773) 631-0747,60631,-87.80969007660565,41.99719003332553,Liquor Store
"7650 W Touhy Ave, Chicago, Illinois, 60631",(773) 763-4785,60631,-87.81813999999997,42.011430000000075,Liquor Store
"10 S Northwest Hwy, Park Ridge, Illinois, 60068",(847) 518-5322,60068,-87.82891999999998,42.01081000000005,Liquor Store
"31 S Northwest Hwy, Park Ridge, Illinois, 60068",(847) 318-6801,60068,-87.82812999999999,42.010350000000074,Liquor Store
"800 Devon Ave, Park Ridge, Illinois, 60068",(847) 825-0478,60068,-87.83317999999997,41.99703000000005,Liquor Store
"7549 W Montrose Ave, Harwood Heights, Illinois, 60706",(708) 456-7557,60706,-87.81692999999996,41.959760000000074,Liquor Store
"4731 N Cumberland Ave, Harwood Heights, Illinois, 60706",(708) 456-3212,60706,-87.83643999999998,41.96539000000007,Liquor Store
"8325 W Lawrence Ave, Harwood Heights, Illinois, 60706",(708) 452-7400,60706,-87.83550000779026,41.965790025535284,Liquor Store
"3600 Des Plaines River Rd, Franklin Park, Illinois, 60131",(847) 671-3326,60131,-87.85447999999997,41.94383000000005,Liquor Store
"3535 Rose St, Franklin Park, Illinois, 60131",(847) 447-3360,60131,-87.86580999999995,41.94348000000008,Liquor Store
"7939 Golf Rd, Morton Grove, Illinois, 60053",(847) 470-0100,60053,-87.82382999999999,42.05411000000004,Liquor Store
"7929 Golf Rd, Morton Grove, Illinois, 60053",(847) 967-9420,60053,-87.82301999999999,42.05411000000004,Liquor Store
"9359 N Milwaukee Ave, Niles, Illinois, 60714",(847) 966-5565,60714,-87.83428999999995,42.05035000000004,Liquor Store
"9001 N Milwaukee Ave, Niles, Illinois, 60714",(847) 581-0792,60714,-87.82915006217893,42.043950062179,Liquor Store
"8874 N Milwaukee Ave, Niles, Illinois, 60714",(847) 803-8833,60714,-87.8281500038951,42.0418699961049,Liquor Store
"8200 Oakton St, Niles, Illinois, 60714",(847) 696-7240,60714,-87.82983994892953,42.02597007660574,Liquor Store
"999 Green Bay Rd, Winnetka, Illinois, 60093",(847) 881-2644,60093,-87.74527999220969,42.11872002221704,Liquor Store
"7544 N Milwaukee Ave, Chicago, Illinois, 60631",(773) 775-1503,60631,-87.80716999999999,42.018230000000074,Liquor Store
"729 W Dundee Rd, Wheeling, Illinois, 60090",(847) 419-9619,60090,-87.9338300261121,42.13889992339438,Liquor Store
"260 S Milwaukee Ave, Wheeling, Illinois, 60090",(847) 465-9590,60090,-87.90450007328742,42.13581002553531,Liquor Store
"520 Quail Hollow Dr, Wheeling, Illinois, 60090",(847) 229-8913,60090,-87.92987997446471,42.14920000115388,Liquor Store
"1840 Holste Rd, Northbrook, Illinois, 60062",(847) 504-0600,60062,-87.82662992224044,42.10096006390977,Liquor Store
"3135 Dundee Rd, Northbrook, Illinois, 60062",(847) 480-6328,60062,-87.85700997056958,42.137329966674535,Liquor Store
"1512 Shermer Rd, Northbrook, Illinois, 60062",(847) 498-1772,60062,-87.82947001500362,42.12497007660573,Liquor Store
"2831 Dundee Rd, Northbrook, Illinois, 60062",(847) 559-9229,60062,-87.84925999999996,42.13803000000007,Liquor Store
"3205 River Falls Dr, Northbrook, Illinois, 60062",(847) 977-1542,60062,-87.85884997446476,42.12515994113931,Liquor Store
"3398 Commercial Ave, Northbrook, Illinois, 60062",(847) 564-1400,60062,-87.86289999999997,42.146570000000054,Liquor Store
"984 Willow Rd, Northbrook, Illinois, 60062",(847) 562-9259,60062,-87.80269999999996,42.10687000000007,Liquor Store
"300 S Happ Rd, Winnetka, Illinois, 60093",(847) 441-6328,60093,-87.76890999999995,42.09943000000004,Liquor Store
"300 Happ Rd, Winnetka, Illinois, 60093",(847) 446-5001,60093,-87.76915999999994,42.09929000000005,Liquor Store
"495 Central Ave, Winnetka, Illinois, 60093",(847) 441-0440,60093,-87.77077992224048,42.104329974464804,Liquor Store
"110 S Waukegan Rd, Deerfield, Illinois, 60015",(847) 400-5925,60015,-87.83457999999996,42.15089000000006,Liquor Store
"1364 Patriot Blvd, Glenview, Illinois, 60026",(847) 834-0416,60026,-87.81753999999995,42.07950000000005,Liquor Store
"1830 Tower Dr, Glenview, Illinois, 60026",(847) 834-0659,60026,-87.82361999999995,42.08833000000004,Liquor Store
"2400 Chestnut Ave, Glenview, Illinois, 60026",(847) 657-3542,60026,-87.81502999999998,42.08748000000003,Liquor Store
"1855 Waukegan Rd, Glenview, Illinois, 60025",(847) 724-0243,60025,-87.79773992945384,42.08896994892962,Liquor Store
"1844 Waukegan Rd, Glenview, Illinois, 60025",(847) 724-2754,60025,-87.79805001009791,42.08882997056972,Liquor Store
"967 Waukegan Rd, Glenview, Illinois, 60025",(847) 729-8700,60025,-87.79941999999994,42.071930000000066,Liquor Store
"1975 Johns Dr, Glenview, Illinois, 60025",(847) 832-9020,60025,-87.81273999999996,42.091120000000046,Liquor Store
"1201 Waukegan Rd, Glenview, Illinois, 60025",(847) 724-0132,60025,-87.79838999999998,42.07630000000006,Liquor Store
"7184 Dempster St, Morton Grove, Illinois, 60053",(847) 581-0600,60053,-87.80588999999998,42.04128000000003,Liquor Store
"5846 Dempster St, Morton Grove, Illinois, 60053",(847) 581-9220,60053,-87.77383999610484,42.0409600261122,Liquor Store
"992 Willow Rd, Northbrook, Illinois, 60062",(847) 504-0277,60062,-87.80269006275584,42.10632993782112,Liquor Store
"592 Roger Williams Ave, Highland Park, Illinois, 60035",(773) 362-5553,60035,-87.78549997056959,42.165479996104885,Liquor Store
"583 N Milwaukee Ave, Wheeling, Illinois, 60090",(847) 215-1200,60090,-87.91243999999995,42.150090000000034,Liquor Store
"7239 Dempster St, Niles, Illinois, 60714",(847) 470-0404,60714,-87.80769999999995,42.040770000000066,Liquor Store
"1165 Wilmette Ave, Wilmette, Illinois, 60091",(847) 256-0070,60091,-87.70654999999994,42.07699000000008,Liquor Store
"813 Ridge Rd, Wilmette, Illinois, 60091",(847) 251-4000,60091,-87.72253007718257,42.07839002553527,Liquor Store
"421 Ridge Rd, Wilmette, Illinois, 60091",(847) 251-3601,60091,-87.7230399561429,42.07265995614297,Liquor Store
"1515 Sheridan Rd, Wilmette, Illinois, 60091",(847) 256-6400,60091,-87.70070006621734,42.086760054532036,Liquor Store
"7425 N Croname Rd, Niles, Illinois, 60714",(847) 588-2900,60714,-87.78537999999998,42.01649000000003,Liquor Store
"7649 N Milwaukee Ave, Niles, Illinois, 60714",(847) 967-8995,60714,-87.80844996667444,42.02016004385716,Liquor Store
"8000 N Waukegan Rd, Niles, Illinois, 60714",(847) 965-9805,60714,-87.80266998499631,42.02661001832194,Liquor Store
"5625 Howard St, Niles, Illinois, 60714",(847) 410-0595,60714,-87.76908999999995,42.01917000000003,Liquor Store
"5720 W Touhy Ave, Niles, Illinois, 60714",(847) 647-9389,60714,-87.77074999999996,42.01198000000005,Liquor Store
"2919 W Touhy Ave, Chicago, Illinois, 60645",(773) 262-0600,60645,-87.70286999999996,42.011989948352664,Liquor Store
"809 Sherman Ave, Evanston, Illinois, 60202",(773) 824-9368,60202,-87.6821699811012,42.03242000000006,Liquor Store
"1905 Howard St, Evanston, Illinois, 60202",(847) 328-0432,60202,-87.69999999999999,42.019390000000044,Liquor Store
"509 Main St, Evanston, Illinois, 60202",(847) 864-5504,60202,-87.67839999999995,42.03393000779034,Liquor Store
"635 Chicago Ave, Evanston, Illinois, 60202",(847) 491-0940,60202,-87.67825992671253,42.03048997994745,Liquor Store
"615 Dempster St, Evanston, Illinois, 60201",(847) 864-8700,60201,-87.68126999999998,42.041210000000035,Liquor Store
"517 Dempster St, Evanston, Illinois, 60201",(847) 868-8767,60201,-87.67910999999998,42.041180000000054,Liquor Store
"1601 Simpson St, Evanston, Illinois, 60201",(312) 259-3059,60201,-87.69436999999994,42.05573000057694,Liquor Store
"501 Davis St, Evanston, Illinois, 60201",(847) 869-3474,60201,-87.67792999999995,42.045780000000036,Liquor Store
"1000 Davis St, Evanston, Illinois, 60201",(847) 328-9434,60201,-87.68519001110847,42.04705995556606,Liquor Store
"809 Davis St, Evanston, Illinois, 60201",(847) 866-0998,60201,-87.68236999999993,42.046970000000044,Liquor Store
"2126 Central St, Evanston, Illinois, 60201",(847) 866-8609,60201,-87.70315999999997,42.06435000000005,Liquor Store
"1941 Central St, Evanston, Illinois, 60201",(630) 262-1777,60201,-87.70076999999998,42.064390073287505,Liquor Store
"2106 Central St, Evanston, Illinois, 60201",(847) 328-7710,60201,-87.70235007660563,42.06433998110129,Liquor Store
"2016 Central St, Evanston, Illinois, 60201",(847) 475-1515,60201,-87.70165999999995,42.06434000000007,Liquor Store
"1630 Maple Ave, Evanston, Illinois, 60201",(847) 425-1886,60201,-87.68521999999996,42.04799000000003,Liquor Store
"7140 N McCormick Blvd, Lincolnwood, Illinois, 60712",(847) 763-1230,60712,-87.71191999999996,42.01043000000004,Liquor Store
"3935 W Touhy Ave, Lincolnwood, Illinois, 60712",(847) 674-2120,60712,-87.72772999999995,42.011719981101244,Liquor Store
"8042 Lincoln Ave, Skokie, Illinois, 60077",(847) 213-0900,60077,-87.75459999999998,42.027390000000025,Liquor Store
"9410 Skokie Blvd, Skokie, Illinois, 60077",(847) 673-5010,60077,-87.74728002553519,42.052789937821125,Liquor Store
"4861 Oakton St, Skokie, Illinois, 60077",(847) 329-1430,60077,-87.7498999816781,42.026259948352674,Liquor Store
"3745 Dempster St, Skokie, Illinois, 60076",(847) 677-5777,60076,-87.72246997056962,42.040609937821124,Liquor Store
"3556 Dempster St, Skokie, Illinois, 60076",(847) 673-9388,60076,-87.71802006607403,42.041070018321925,Liquor Store
"1450 Sherman Ave, Evanston, Illinois, 60201",(847) 869-0450,60201,-87.68194003332549,42.044440025535266,Liquor Store
"810 Grove St, Evanston, Illinois, 60201",(847) 905-0854,60201,-87.68232005496557,42.04552999942314,Liquor Store
"105 McHenry Rd, Buffalo Grove, Illinois, 60089",(847) 808-0100,60089,-87.95966999999996,42.15575000000007,Liquor Store
"100 Lexington Dr, Buffalo Grove, Illinois, 60089",(847) 808-3030,60089,-87.94287005554244,42.15502003664378,Liquor Store
"333 Lexington Dr, Buffalo Grove, Illinois, 60089",(847) 459-3100,60089,-87.9426499394085,42.15877006217901,Liquor Store
"778 E Dundee Rd, Palatine, Illinois, 60074",(847) 705-6911,60074,-88.02372999999994,42.139470000000074,Liquor Store
"1890 N Rand Rd, Palatine, Illinois, 60074",(847) 359-3454,60074,-88.02630006665096,42.14330999942314,Liquor Store
"1332 N Roselle Rd, Schaumburg, Illinois, 60195",(847) 290-1443,60195,-88.08088999999995,42.05226000000005,Liquor Store
"320 Old McHenry Rd, Lake Zurich, Illinois, 60047",(847) 383-5353,60047,-87.99743999999998,42.17804000000007,Liquor Store
"318 Old McHenry Rd, Lake Zurich, Illinois, 60047",(847) 821-9101,60047,-87.99738005496553,42.178019952247816,Liquor Store
"424 Robert Parker Coffin Rd, Lake Zurich, Illinois, 60047",(847) 634-0450,60047,-87.99904999999995,42.177850000000035,Liquor Store
"220 Robert Parker Coffin Rd, Lake Zurich, Illinois, 60047",(847) 634-0080,60047,-87.99740999999995,42.17859000000004,Liquor Store
"420 Robert Parker Coffin Rd, Lake Zurich, Illinois, 60047",(847) 634-0450,60047,-87.99904999999995,42.177850000000035,Liquor Store
"240 Robert Parker Coffin Rd, Lake Zurich, Illinois, 60047",(847) 478-8741,60047,-87.99722999999994,42.17864000000003,Liquor Store
"62 N Old Rand Rd, Lake Zurich, Illinois, 60047",(847) 438-8330,60047,-88.09408999999994,42.197970000000055,Liquor Store
"806 S Rand Rd, Lake Zurich, Illinois, 60047",(847) 438-4330,60047,-88.08884999999998,42.18559000000005,Liquor Store
"684 S Rand Rd, Lake Zurich, Illinois, 60047",(847) 550-9000,60047,-88.09179999999998,42.18513000000007,Liquor Store
"10 E Main St, Lake Zurich, Illinois, 60047",(847) 540-0423,60047,-88.09284999610483,42.19701007328748,Liquor Store
"20330 N Deer Park Blvd, Barrington, Illinois, 60010",(847) 726-2663,60010,-88.05413002279388,42.15904992281748,Liquor Store
"5175 Aptakisic Rd, Lake Zurich, Illinois, 60047",(847) 634-2831,60047,-87.97643007444125,42.18346005727334,Liquor Store
"3750 Dempster St, Skokie, Illinois, 60076",(847) 673-5001,60076,-87.72249004385706,42.0410500255353,Liquor Store
"4558 Oakton St, Skokie, Illinois, 60076",(847) 982-1720,60076,-87.74247999999994,42.02628000000004,Liquor Store
"4113 Main St, Skokie, Illinois, 60076",(847) 679-0033,60076,-87.73095997446472,42.03342999220978,Liquor Store
"542 Chestnut St, Winnetka, Illinois, 60093",(847) 784-8796,60093,-87.73519999999996,42.10623000000004,Liquor Store
"1837 S 17th Ave, Broadview, Illinois, 60155",(708) 681-0135,60155,-87.85324994445747,41.8696700255353,Liquor Store
"4009 St Charles Rd, Bellwood, Illinois, 60104",(708) 547-5969,60104,-87.88249999999994,41.888730000000066,Liquor Store
"706 Bellwood Ave, Bellwood, Illinois, 60104",(708) 493-1455,60104,-87.87825999999995,41.87993000000006,Liquor Store
"1685 N Mannheim Rd, Stone Park, Illinois, 60165",(708) 681-5990,60165,-87.88347999999996,41.902990000000045,Liquor Store
"2700 Division St, Melrose Park, Illinois, 60160",(708) 344-9200,60160,-87.86719994892951,41.90021991892232,Liquor Store
"2015 Rice St, Melrose Park, Illinois, 60160",(708) 338-1200,60160,-87.85885999999994,41.894070000000056,Liquor Store
"2012 W Lake St, Melrose Park, Illinois, 60160",(708) 681-8871,60160,-87.85867002943033,41.89382991949927,Liquor Store
"2113 W Lake St, Melrose Park, Illinois, 60160",(708) 343-2976,60160,-87.85924006722787,41.89400004832922,Liquor Store
"1509 Irving Park Rd, Hanover Park, Illinois, 60133",(630) 483-8898,60133,-88.14074001110849,42.00467999942316,Liquor Store
"2003 Irving Park Rd, Hanover Park, Illinois, 60133",(224) 236-5045,60133,-88.15475999999995,42.008120000000076,Liquor Store
"7900 Madison St, River Forest, Illinois, 60305",(708) 771-5181,60305,-87.82117000447202,41.87932003332555,Liquor Store
"7520 Roosevelt Rd, Forest Park, Illinois, 60130",(708) 488-5750,60130,-87.81197999999995,41.86483000000004,Liquor Store
"7234 Circle Ave, Forest Park, Illinois, 60130",(708) 366-4510,60130,-87.80679997056959,41.88640996277941,Liquor Store
"7415 Madison St, Forest Park, Illinois, 60130",(708) 366-9600,60130,-87.81035999999995,41.87956000057699,Liquor Store
"7180 22nd St, Berwyn, Illinois, 60402",(708) 788-5097,60402,-87.80330999999995,41.850400000000036,Liquor Store
"7737 Roosevelt Rd, Forest Park, Illinois, 60130",(708) 366-6100,60130,-87.81787999999995,41.86477000057698,Liquor Store
"7432 Madison St, Forest Park, Illinois, 60130",(708) 366-2823,60130,-87.81123997446474,41.87951996277941,Liquor Store
"23 W North Ave, Melrose Park, Illinois, 60164",(708) 562-5800,60164,-87.90456994503435,41.90628998167819,Liquor Store
"2099 N Mannheim Rd, Melrose Park, Illinois, 60160",(630) 347-6512,60160,-87.88396999999998,41.91387000000003,Liquor Store
"1025 W Golf Rd, Hoffman Estates, Illinois, 60169",(847) 524-5544,60169,-88.10506999999996,42.04822000000007,Liquor Store
"1016 W Golf Rd, Hoffman Estates, Illinois, 60169",(847) 490-4400,60169,-88.10597006939228,42.04866006607416,Liquor Store
"1685 W Higgins Rd, Hoffman Estates, Illinois, 60169",(224) 353-6322,60169,-88.11996999999997,42.05353000000008,Liquor Store
"1754 Raleigh Ln, Hoffman Estates, Illinois, 60169",(847) 310-1358,60169,-88.12926003332548,42.05815993392598,Liquor Store
"1112 S Roselle Rd, Schaumburg, Illinois, 60193",(847) 985-0300,60193,-88.08019999999999,42.006620000000055,Liquor Store
"1218 S Roselle Rd, Schaumburg, Illinois, 60193",(847) 895-0200,60193,-88.0804200510704,42.0043699233944,Liquor Store
"30 S Roselle Rd, Schaumburg, Illinois, 60193",(847) 534-0544,60193,-88.08187993392589,42.02626994503444,Liquor Store
"1720 W Wise Rd, Schaumburg, Illinois, 60193",(847) 352-0800,60193,-88.12232999999998,42.004270000000076,Liquor Store
"1125 Westover Ln, Schaumburg, Illinois, 60193",(847) 985-7000,60193,-88.12066999163277,42.00442006939237,Liquor Store
"1266 Lake St, Roselle, Illinois, 60172",(630) 283-0056,60172,-88.11330999999996,41.969160000000045,Liquor Store
"925 S IL Route 59, Bartlett, Illinois, 60103",(630) 372-1633,60103,-88.20648999999997,41.97285000000005,Liquor Store
"358 W Army Trail Rd, Bloomingdale, Illinois, 60108",(630) 894-0088,60108,-88.11122999999998,41.93808000000007,Liquor Store
"353 W Army Trail Rd, Bloomingdale, Illinois, 60108",(630) 671-3860,60108,-88.10910995888416,41.93967001832191,Liquor Store
"338 W Army Trail Rd, Bloomingdale, Illinois, 60108",(630) 924-3020,60108,-88.11034994445745,41.93881997056971,Liquor Store
"383 W Army Trail Rd, Bloomingdale, Illinois, 60108",(630) 893-0769,60108,-88.11459999884613,41.93986005107052,Liquor Store
"369 W Army Trail Rd, Bloomingdale, Illinois, 60108",(630) 539-0541,60108,-88.11258998167808,41.93927007444134,Liquor Store
"126 Broadview Village Sq, Broadview, Illinois, 60155",(708) 345-6476,60155,-87.84903999999995,41.84985000000006,Liquor Store
"1001 W Cermak Rd, Broadview, Illinois, 60155",,60155,-87.84473993392588,41.85041004385714,Liquor Store
"1406 S 5th Ave, Maywood, Illinois, 60153",(708) 865-8566,60153,-87.83870003000723,41.87492002553529,Liquor Store
"3829 N Harlem Ave, Chicago, Illinois, 60634",(773) 777-9555,60634,-87.80715991892222,41.949790025535265,Liquor Store
"7101 W Addison St, Chicago, Illinois, 60634",(773) 736-3766,60634,-87.80355999999995,41.94532998110129,Liquor Store
"2445 N Harlem Ave, Elmwood Park, Illinois, 60707",(773) 637-3772,60707,-87.80626991892225,41.9249399378211,Liquor Store
"2623 N Harlem Ave, Elmwood Park, Illinois, 60707",(773) 622-7503,60707,-87.80636994445749,41.92779002553527,Liquor Store
"7065 W Belmont Ave, Chicago, Illinois, 60634",(773) 622-2220,60634,-87.80376999999999,41.93802000000005,Liquor Store
"2400 N Harlem Ave, Elmwood Park, Illinois, 60707",(708) 453-0155,60707,-87.80707992555867,41.92439998167817,Liquor Store
"7230 W North Ave, Elmwood Park, Illinois, 60707",(708) 395-5880,60707,-87.8072600038951,41.909090020052645,Liquor Store
"12 W Conti Pkwy, Elmwood Park, Illinois, 60707",(708) 453-0266,60707,-87.81850004443395,41.92715992281746,Liquor Store
"7215 W Grand Ave, Elmwood Park, Illinois, 60707",(708) 456-6343,60707,-87.80699006217894,41.92410998831464,Liquor Store
"344 N Wolf Rd, Hillside, Illinois, 60162",(708) 632-4246,60162,-87.90292008050076,41.87701001832192,Liquor Store
"124 N Oak Park Ave, Oak Park, Illinois, 60301",(708) 660-1350,60301,-87.79446999999999,41.88831000000005,Liquor Store
"736 Lake St, Oak Park, Illinois, 60301",(708) 383-7360,60301,-87.79437994892953,41.88865007328749,Liquor Store
"1138 Lake St, Oak Park, Illinois, 60301",(708) 848-7772,60301,-87.80448999999999,41.88861000000003,Liquor Store
"1020 Lake St, Oak Park, Illinois, 60301",(708) 386-1451,60301,-87.80077999999997,41.88866000000007,Liquor Store
"107 N Marion St, Oak Park, Illinois, 60301",(708) 848-4840,60301,-87.80249003332547,41.887530025535284,Liquor Store
"7201 Lake St, River Forest, Illinois, 60305",(708) 488-8596,60305,-87.80554998167811,41.888529958884284,Liquor Store
"4272 N Harlem Ave, Harwood Heights, Illinois, 60706",(708) 453-8778,60706,-87.80726999999996,41.957790000000045,Liquor Store
"4275 N Harlem Ave, Harwood Heights, Illinois, 60706",(708) 457-1937,60706,-87.80695999999995,41.958030000000065,Liquor Store
"7501 W 22nd St, Riverside, Illinois, 60546",(708) 442-3099,60546,-87.81070003000721,41.85024998932519,Liquor Store
"6944 22nd St, Berwyn, Illinois, 60402",(708) 749-1872,60402,-87.79800007660566,41.85053002611221,Liquor Store
"3848 N Harlem Ave, Chicago, Illinois, 60634",(773) 625-7818,60634,-87.80723004443398,41.950349974464814,Liquor Store
"6801 W Addison St, Chicago, Illinois, 60634",(773) 282-8669,60634,-87.79613999999998,41.94544994113931,Liquor Store
"728 E Schaumburg Rd, Schaumburg, Illinois, 60194",(847) 781-5000,60194,-88.06183999999996,42.02949000000007,Liquor Store
"55 S Barrington Rd, Barrington, Illinois, 60010",(847) 381-5900,60010,-88.14389994214976,42.06958003447939,Liquor Store
"1629 N Roselle Rd, Roselle, Illinois, 60172",(847) 534-0394,60172,-88.07967996999267,41.99699000389521,Liquor Store
"1461 Palatine Rd, Hoffman Estates, Illinois, 60192",(847) 485-7039,60192,-88.11697999999996,42.11059000000006,Liquor Store
"704 S Northwest Hwy, Barrington, Illinois, 60010",(847) 381-4210,60010,-88.12540999999999,42.14972000000006,Liquor Store
"102 S Hager Ave, Barrington, Illinois, 60010",(847) 381-2320,60010,-88.14527007328742,42.153920076605736,Liquor Store
"100 E Station St, Barrington, Illinois, 60010",(847) 381-9866,60010,-88.13542999999999,42.153330047752284,Liquor Store
"40 W Higgins Rd, Barrington, Illinois, 60010",(847) 428-6727,60010,-88.16740000779022,42.0683600040385,Liquor Store
"100 W Higgins Rd, Barrington, Illinois, 60010",(224) 484-8838,60010,-88.18114997720605,42.07220004558792,Liquor Store
"386 E Irving Park Rd, Roselle, Illinois, 60172",(630) 980-8299,60172,-88.07067999999998,41.98427000000004,Liquor Store
"455 W Northwest Hwy, Barrington, Illinois, 60010",(847) 381-5113,60010,-88.14421006939226,42.16156996999276,Liquor Store
"227 N Northwest Hwy, Barrington, Illinois, 60010",(847) 382-0835,60010,-88.12806999999998,42.15605000000005,Liquor Store
"15 S Roselle Rd, Roselle, Illinois, 60172",(630) 529-9463,60172,-88.08000995830727,41.983299945034474,Liquor Store
"1700 US-20, Addison, Illinois, 60101",(630) 773-1050,60101,-88.02821999999998,41.948920000000044,Liquor Store
"1783 Howard St, Chicago, Illinois, 60626",(773) 262-1133,60626,-87.67563999999999,42.01937000000004,Liquor Store
"7401 N Clark St, Chicago, Illinois, 60626",(773) 262-3663,60626,-87.6748999955279,42.015920033325536,Liquor Store
"7200 N Clark St, Chicago, Illinois, 60626",(773) 761-4141,60626,-87.67470003390237,42.01292993060777,Liquor Store
"6955 N Clark St, Chicago, Illinois, 60626",(773) 274-6394,60626,-87.67373993334898,42.008150069392386,Liquor Store
"7137 N Clark St, Chicago, Illinois, 60626",(773) 274-9424,60626,-87.67458999999997,42.012440000000026,Liquor Store
"Jalan Raya Tambak Rejo, Waru, Sidoarjo, Jawa Timur, 61256",,61256,112.77492000000007,-7.352669999999932,Liquor Store
"Jalan Tambak Oso, Waru, Sidoarjo, Jawa Timur, 61256",,61256,112.80576000000008,-7.34839999999997,Liquor Store
"Jalan Manyar Kertoarjo, Gubeng, Surabaya, Jawa Timur, 60285",,60285,112.77055000000007,-7.280239999999935,Liquor Store
"Sukolilo, Surabaya, Jawa Timur, 60118",,60118,112.7631100000001,-7.289979999999957,Liquor Store
"Jalan Pumpungan IV, Sukolilo, Surabaya, Jawa Timur, 60118",+62 852-18677167,60118,112.76368000000002,-7.297639999999944,Liquor Store
"Jalan Menur Pumpungan, Sukolilo, Surabaya, Jawa Timur, 60118",,60118,112.76823000000002,-7.289189999999962,Liquor Store
"Jalan Menur III, Sukolilo, Surabaya, Jawa Timur, 60118",,60118,112.76542000000006,-7.288149999999973,Liquor Store
"Jalan Manyar Kartika Barat 8, Sukolilo, Surabaya, Jawa Timur, 60118",+62 31-5991308,60118,112.7643700000001,-7.292299999999955,Liquor Store
"Jalan Raya Menur, Mulyorejo, Surabaya, Jawa Timur, 60116",,60116,112.76310000000001,-7.286469999999952,Liquor Store
"Jalan Manyar Kertoarjo, Mulyorejo, Surabaya, Jawa Timur, 60116",,60116,112.76691000000005,-7.280059999999935,Liquor Store
"Jalan Manyar Airdas, Mulyorejo, Surabaya, Jawa Timur, 60116",,60116,112.76285000000007,-7.285199999999975,Liquor Store
"Jalan Manyar, Mulyorejo, Surabaya, Jawa Timur, 60116",+62 21-5485972,60116,112.76326000000006,-7.28854999999993,Liquor Store
"Jalan Raya Kertajaya Indah, Mulyorejo, Surabaya, Jawa Timur, 60116",,60116,112.77550000000008,-7.280369999999948,Liquor Store
"Jalan Gunung Anyar Lor, Gunung Anyar, Surabaya, Jawa Timur, 60294",,60294,112.78070000000002,-7.336589999999944,Liquor Store
"Jalan Gunung Anyar Gang Lor 2, Gunung Anyar, Surabaya, Jawa Timur, 60294",,60294,112.78092000000004,-7.3343099999999595,Liquor Store
"Jalan Amir Mahmud, Gunung Anyar, Surabaya, Jawa Timur, 60294",,60294,112.78177000000005,-7.341049999999939,Liquor Store
"Jalan Raya Kedung Asem, Rungkut, Surabaya, Jawa Timur, 60298",,60298,112.77863000000002,-7.322219999999959,Liquor Store
"Jalan Raya Rungkut Mejoyo, Rungkut, Surabaya, Jawa Timur, 60298",,60298,112.76417000000004,-7.320619999999963,Liquor Store
"Jalan Rungkut Mejoyo Selatan IX, Rungkut, Surabaya, Jawa Timur, 60298",,60298,112.76453000000004,-7.320569999999975,Liquor Store
"Ruko Rungkut Megah Raya, Rungkut, Surabaya, Jawa Timur, 60298",+62 31-8794537,60298,112.76967000000002,-7.311089999999979,Liquor Store
"Jalan Raya Taman Asri, Waru, Sidoarjo, Jawa Timur, 61256",+62 31-77124000,61256,112.77066000000002,-7.34316999999993,Liquor Store
"Jalan Wadung Asri, Waru, Sidoarjo, Jawa Timur, 61256",,61256,112.76773000000003,-7.347509999999943,Liquor Store
"Jalan Perumahan Pondok Tjandra Indah, Waru, Sidoarjo, Jawa Timur, 61256",,61256,112.76791000000003,-7.341739999999959,Liquor Store
"Jalan Rungkut Madya, Rungkut, Surabaya, Jawa Timur, 60298",,60298,112.78393000000005,-7.3316899999999805,Liquor Store
"Jalan Medokan Asri Timur IX, Rungkut, Surabaya, Jawa Timur, 60298",,60298,112.78793000000007,-7.331849999999974,Liquor Store
"Gunung Anyar, Surabaya, Jawa Timur, 60294",,60294,112.80015000000003,-7.333119999999951,Liquor Store
"Jalan Wiguna Tengah, Gunung Anyar, Surabaya, Jawa Timur, 60294",,60294,112.79983000000004,-7.334479999999928,Liquor Store
"Jalan Raya Gunung Anyar, Gunung Anyar, Surabaya, Jawa Timur, 60294",,60294,112.80211000000008,-7.342609999999979,Liquor Store
"Jalan Menur Pumpungan, Sukolilo, Surabaya, Jawa Timur, 60117",,60117,112.77327000000002,-7.289569999999969,Liquor Store
"Jalan Klampis Ngasem III, Sukolilo, Surabaya, Jawa Timur, 60117",,60117,112.77474000000007,-7.289249999999981,Liquor Store
"Jalan Klampis Semalang I, Sukolilo, Surabaya, Jawa Timur, 60117",,60117,112.77278000000001,-7.289679999999976,Liquor Store
"Jalan Semolowaru Tengah I, Sukolilo, Surabaya, Jawa Timur, 60119",,60119,112.77892000000008,-7.303769999999929,Liquor Store
"Jalan Raya Keputih Permai, Sukolilo, Surabaya, Jawa Timur, 60117",,60117,112.80935000000011,-7.291189999999972,Liquor Store
"Jalan Dharma Husada Permai XII, Mulyorejo, Surabaya, Jawa Timur, 60115",,60115,112.78239000000008,-7.274239999999963,Liquor Store
"Jalan Raya Mulyosari, Mulyorejo, Surabaya, Jawa Timur, 60115",+62 21-53160919,60115,112.79775000000006,-7.274419999999964,Liquor Store
"Jalan Wisma Permai Barat V, Mulyorejo, Surabaya, Jawa Timur, 60115",,60115,112.7823800000001,-7.273799999999937,Liquor Store
"Jalan Dharmahusada Indah Timur, Mulyorejo, Surabaya, Jawa Timur, 60115",,60115,112.78158000000008,-7.274199999999951,Liquor Store
"Jalan Raya Medokan Sawah, Rungkut, Surabaya, Jawa Timur, 60295",,60295,112.7996700000001,-7.332699999999932,Liquor Store
"Jalan Prof Dr Mustopo, Gubeng, Surabaya, Jawa Timur, 60285",,60285,112.77057000000002,-7.267249999999933,Liquor Store
"Jalan Semolowaru, Sukolilo, Surabaya, Jawa Timur, 60119",,60119,112.77708000000007,-7.300309999999968,Liquor Store
"Central Park Regency, Mulyorejo, Surabaya, Jawa Timur, 60112",,60112,112.79790000000003,-7.266109999999969,Liquor Store
"Ruko Panji Makmur, Tenggilis Mejoyo, Surabaya, Jawa Timur, 60291",,60291,112.76604000000009,-7.309979999999939,Liquor Store
"Jalan Penjaringan Timur, Rungkut, Surabaya, Jawa Timur, 60297",,60297,112.78378000000009,-7.319349999999929,Liquor Store
"5931 W North Ave, Chicago, Illinois, 60639",(773) 637-0003,60639,-87.77435999999994,41.90924000000007,Liquor Store
"400 Madison St, Oak Park, Illinois, 60302",(708) 386-1192,60302,-87.78471002553516,41.87995003722072,Liquor Store
"12 Madison St, Oak Park, Illinois, 60302",(708) 386-2695,60302,-87.77532999610483,41.880070030007325,Liquor Store
"6737 Roosevelt Rd, Berwyn, Illinois, 60402",(708) 484-0944,60402,-87.79325004385707,41.86514992281747,Liquor Store
"6706 16th St, Berwyn, Illinois, 60402",(708) 788-0235,60402,-87.79146999999995,41.85788994835269,Liquor Store
"600 S Cicero Ave, Chicago, Illinois, 60644",(773) 379-2022,60644,-87.74501000447201,41.87293000000005,Liquor Store
"4900 W Flournoy St, Chicago, Illinois, 60644",(773) 378-3908,60644,-87.74711002943033,41.872060069969265,Liquor Store
"5908 W Roosevelt Rd, Chicago, Illinois, 60644",(773) 287-3618,60644,-87.77214002553518,41.86549005164744,Liquor Store
"5746 S Archer Ave, Chicago, Illinois, 60638",(773) 585-2422,60638,-87.75608001832181,41.796700026112205,Liquor Store
"29 E Burlington St, Riverside, Illinois, 60546",(708) 447-1031,60546,-87.81841995946108,41.828259923394405,Liquor Store
"6032 W 22nd St, Cicero, Illinois, 60804",(708) 652-4113,60804,-87.77532002553517,41.85091006996929,Liquor Store
"5917 W 22nd St, Cicero, Illinois, 60804",(708) 222-9023,60804,-87.77210999999994,41.85081000000008,Liquor Store
"5706 W 22nd St, Cicero, Illinois, 60804",(708) 683-6266,60804,-87.76690993060767,41.85104004443405,Liquor Store
"5644 W 22nd St, Cicero, Illinois, 60804",(708) 656-9002,60804,-87.76611002553517,41.85105004443408,Liquor Store
"4900 W Cermak Rd, Cicero, Illinois, 60804",(708) 863-0882,60804,-87.74692999999996,41.8513100699693,Liquor Store
"4834 W Cermak Rd, Cicero, Illinois, 60804",(708) 652-7322,60804,-87.74621995224774,41.8514500732875,Liquor Store
"3028 S Laramie Ave, Cicero, Illinois, 60804",(708) 780-1800,60804,-87.75368005554245,41.8370000255353,Liquor Store
"2336 S Laramie Ave, Cicero, Illinois, 60804",(708) 652-6205,60804,-87.75401999999997,41.84803000000005,Liquor Store
"3032 S Cicero Ave, Cicero, Illinois, 60804",(708) 477-4397,60804,-87.74413999999996,41.83776000000006,Liquor Store
"2315 S Cicero Ave, Cicero, Illinois, 60804",(708) 683-6263,60804,-87.74392999999998,41.84878000000003,Liquor Store
"3811 Harlem Ave, Berwyn, Illinois, 60402",(708) 795-6670,60402,-87.80241999999998,41.82251000000008,Liquor Store
"6747 22nd St, Berwyn, Illinois, 60402",(708) 484-3125,60402,-87.79321993060763,41.85054992281744,Liquor Store
"6323 22nd St, Berwyn, Illinois, 60402",(708) 749-5090,60402,-87.78218993392589,41.85064998831463,Liquor Store
"22nd St, Berwyn, Illinois, 60402",(708) 788-6669,60402,-87.77921999999995,41.85087000000004,Liquor Store
"6239 22nd St, Berwyn, Illinois, 60402",(708) 749-2625,60402,-87.78072992339429,41.850669988314635,Liquor Store
"6300 Ogden Ave, Berwyn, Illinois, 60402",(708) 795-1298,60402,-87.78085991949914,41.83131996667458,Liquor Store
"10754 S Western Ave, Chicago, Illinois, 60643",(773) 238-7071,60643,-87.68163002943035,41.6976299849964,Liquor Store
"11758 S Western Ave, Chicago, Illinois, 60643",(773) 779-6132,60643,-87.68077999999997,41.679250000000025,Liquor Store
"11754 S Western Ave, Chicago, Illinois, 60643",(773) 239-4400,60643,-87.68079008107767,41.679320000000075,Liquor Store
"10645 S Crawford Ave, Chicago, Illinois, 60655",(773) 238-8171,60655,-87.72062999999997,41.699040000000025,Liquor Store
"4134 W 127th St, Alsip, Illinois, 60803",(708) 371-1650,60803,-87.72273002553521,41.662070011685486,Liquor Store
"12844 S Ashland Ave, Riverdale, Illinois, 60827",(708) 396-3103,60827,-87.66106999999994,41.65948000000003,Liquor Store
"12958 Western Ave, Blue Island, Illinois, 60406",(708) 371-5990,60406,-87.68007999999998,41.65733000000006,Liquor Store
"12255 Western Ave, Blue Island, Illinois, 60406",(708) 388-5366,60406,-87.68044992224043,41.67037000000005,Liquor Store
"12948 Western Ave, Blue Island, Illinois, 60406",(708) 385-3410,60406,-87.68010002279388,41.657620000000065,Liquor Store
"12747 Western Ave, Blue Island, Illinois, 60406",(708) 385-3296,60406,-87.67994997720606,41.661329984996414,Liquor Store
"12301 Western Ave, Blue Island, Illinois, 60406",(708) 388-5633,60406,-87.68043994445745,41.66968005107048,Liquor Store
"96 River Oaks Center Dr, Calumet City, Illinois, 60409",(708) 862-3600,60409,-87.55632999999995,41.59639000000004,Liquor Store
"1243 Torrence Ave, Calumet City, Illinois, 60409",(708) 862-3498,60409,-87.55866992281739,41.60069996335633,Liquor Store
"768 Burnham Ave, Calumet City, Illinois, 60409",(708) 360-3340,60409,-87.53957007718253,41.61242000000004,Liquor Store
"1255 Burnham Ave, Calumet City, Illinois, 60409",(708) 862-2259,60409,-87.53930999999994,41.59876000000003,Liquor Store
"511 Burnham Ave, Calumet City, Illinois, 60409",(708) 891-5511,60409,-87.53957999999994,41.62161000000003,Liquor Store
"17080 Torrence Ave, Lansing, Illinois, 60438",(708) 418-3945,60438,-87.55924999999996,41.585390000000075,Liquor Store
"7 Gostlin St, Hammond, Indiana, 46327",(219) 932-1738,46327,-87.52473999999995,41.63295000000005,Liquor Store
"5417 S Oakley Ave, Hammond, Indiana, 46320",(219) 803-0820,46320,-87.51748999999995,41.61651000000006,Liquor Store
"1754 E Joe Orr Rd, Chicago Heights, Illinois, 60411",(708) 758-2711,60411,-87.57480996335626,41.52080998355598,Liquor Store
"18211 Dixie Hwy, Homewood, Illinois, 60430",(708) 799-3835,60430,-87.66534995888416,41.55884000000003,Liquor Store
"17532 Dixie Hwy, Homewood, Illinois, 60430",(708) 957-3400,60430,-87.66511999999994,41.57107000000008,Liquor Store
"813 Maple Ave, Homewood, Illinois, 60430",(708) 510-9712,60430,-87.63663999999994,41.56684000000007,Liquor Store
"3153 191st Pl, Lansing, Illinois, 60438",(708) 474-9340,60438,-87.54041999999998,41.54783000000003,Liquor Store
"3422 Ridge Rd, Lansing, Illinois, 60438",(708) 418-0000,60438,-87.53332001832182,41.564620062178996,Liquor Store
"3033 Ridge Rd, Lansing, Illinois, 60438",(708) 418-0549,60438,-87.54284999999999,41.56475000000006,Liquor Store
"2812 Glenwood Lansing Rd, Chicago Heights, Illinois, 60411",(708) 474-1255,60411,-87.54864993003072,41.54279007386443,Liquor Store
"635 Glenwood Dyer Rd, Chicago Heights, Illinois, 60411",(708) 758-6748,60411,-87.57975999999996,41.53222000000005,Liquor Store
"21579 E Lincoln Hwy, Chicago Heights, Illinois, 60411",(708) 758-2959,60411,-87.53040996941577,41.50239002668912,Liquor Store
"1712 Chicago Rd, Chicago Heights, Illinois, 60411",(708) 712-6034,60411,-87.64027000057689,41.499859945034444,Liquor Store
"806 S Halsted St, Chicago Heights, Illinois, 60411",(708) 300-6618,60411,-87.63565005554247,41.51661000000007,Liquor Store
"1037 Dixie Hwy, Chicago Heights, Illinois, 60411",(708) 755-1207,60411,-87.64297999999997,41.511610000000076,Liquor Store
"1016 E Steger Rd, Crete, Illinois, 60417",(708) 672-9200,60417,-87.58683002553516,41.469929984419515,Liquor Store
"1375 Benton St, Crete, Illinois, 60417",(708) 672-7417,60417,-87.63252991892224,41.44361002553529,Liquor Store
"101 US-30, Dyer, Indiana, 46311",(219) 865-2779,46311,-87.52227006001455,41.494160033902475,Liquor Store
"8241 Hohman Ave, Munster, Indiana, 46321",(219) 836-5400,46321,-87.52201999999994,41.56344000000007,Liquor Store
"1301 Chicago Rd, Chicago Heights, Illinois, 60411",(708) 754-1130,60411,-87.64118996277934,41.5077500255353,Liquor Store
"11015 S Harlem Ave, Worth, Illinois, 60482",(708) 923-6353,60482,-87.79718997056958,41.691460043857134,Liquor Store
"7205 W 103rd St, Palos Hills, Illinois, 60465",(708) 529-3407,60465,-87.79895999999997,41.70402000000007,Liquor Store
"10717 S Ridgeland Ave, Chicago Ridge, Illinois, 60415",(708) 636-3437,60415,-87.77889999999996,41.69735000000003,Liquor Store
"6606 W 111th St, Worth, Illinois, 60482",(708) 671-8103,60482,-87.78477999999996,41.69070000000005,Liquor Store
"1030 E 162nd St, South Holland, Illinois, 60473",(708) 596-2440,60473,-87.59169999999995,41.600820000000056,Liquor Store
"15411 Cottage Grove Ave, Dolton, Illinois, 60419",(708) 896-6392,60419,-87.59649999999993,41.61485000000005,Liquor Store
"14725 Drexel Ave, Dolton, Illinois, 60419",(708) 201-0009,60419,-87.5953199622024,41.62621992714622,Liquor Store
"18324 Governors Hwy, Homewood, Illinois, 60430",(708) 816-8051,60430,-87.68160999999998,41.55627000000004,Liquor Store
"18312 Governors Hwy, Homewood, Illinois, 60430",(708) 957-1118,60430,-87.68238999999994,41.55654000000004,Liquor Store
"18436 Governors Hwy, Homewood, Illinois, 60430",(708) 799-5151,60430,-87.68237999999997,41.555270000000064,Liquor Store
"3420 W 183rd St, Hazel Crest, Illinois, 60429",(708) 799-7677,60429,-87.70020999999997,41.557690000000036,Liquor Store
"1035 Sterling Ave, Flossmoor, Illinois, 60422",(708) 957-2739,60422,-87.67897995224772,41.54304998167817,Liquor Store
"11248 S Michigan Ave, Chicago, Illinois, 60628",(773) 995-7420,60628,-87.62103003722062,41.68930007660571,Liquor Store
"3328 W 159th St, Markham, Illinois, 60428",(708) 566-1595,60428,-87.69760995888417,41.60112996335632,Liquor Store
"263 E 159th St, Harvey, Illinois, 60426",(708) 339-5109,60426,-87.64109997778294,41.60091003332554,Liquor Store
"4031 147th St, Midlothian, Illinois, 60445",(708) 388-0088,60445,-87.71916999999996,41.625499981101264,Liquor Store
"5447 159th St, Oak Forest, Illinois, 60452",(708) 535-1111,60452,-87.75354999999996,41.602670000000046,Liquor Store
"5329 159th St, Oak Forest, Illinois, 60452",(708) 687-5533,60452,-87.75003999999996,41.602760000000046,Liquor Store
"4803 211th St, Matteson, Illinois, 60443",(708) 283-7059,60443,-87.73288999999994,41.50578000000007,Liquor Store
"14929 Archer Ave, Lockport, Illinois, 60441",(815) 838-4145,60441,-88.03701996667444,41.614959963356306,Liquor Store
"132 N Bolingbrook Dr, Bolingbrook, Illinois, 60440",(630) 783-3518,60440,-88.0672999811012,41.699170029430405,Liquor Store
"635 E Boughton Rd, Bolingbrook, Illinois, 60440",(630) 853-5854,60440,-88.04070999999999,41.71841000000006,Liquor Store
"751 E Boughton Rd, Bolingbrook, Illinois, 60440",(630) 656-4616,60440,-88.03855999999996,41.723130000000026,Liquor Store
"641 E Boughton Rd, Bolingbrook, Illinois, 60440",(630) 739-3000,60440,-88.04150999999996,41.71990000000005,Liquor Store
"E Boughton Rd, Bolingbrook, Illinois, 60440",(630) 783-3471,60440,-88.04268999999994,41.721010000000035,Liquor Store
"860 E Boughton Rd, Bolingbrook, Illinois, 60440",(630) 783-9101,60440,-88.03142995946108,41.72674005496563,Liquor Store
"14158 W 159th St, Homer Glen, Illinois, 60491",(708) 301-7720,60491,-87.9646399561429,41.599220052224325,Liquor Store
"14242 S Bell Rd, Homer Glen, Illinois, 60491",(708) 301-4081,60491,-87.93308008050079,41.6294400766057,Liquor Store
"15112 S Bell Rd, Homer Glen, Illinois, 60491",(708) 301-0832,60491,-87.93092000779025,41.61424000000005,Liquor Store
"1529 S State St, Lockport, Illinois, 60441",(815) 834-2621,60441,-88.06097001832181,41.58255002221707,Liquor Store
"937 S Hamilton St, Lockport, Illinois, 60441",(815) 838-4700,60441,-88.05648006607403,41.588160069392345,Liquor Store
"7241 Lemont Rd, Downers Grove, Illinois, 60516",(630) 427-6800,60516,-88.00991999999997,41.75497000000007,Liquor Store
"7339 Lemont Rd, Downers Grove, Illinois, 60516",(773) 355-4224,60516,-88.01065999999997,41.75378000000006,Liquor Store
"7511 Lemont Rd, Darien, Illinois, 60561",(630) 985-8543,60561,-88.01184008107768,41.74885992613569,Liquor Store
"2415 75th St, Darien, Illinois, 60561",(630) 427-1458,60561,-88.00362999999999,41.75064000000003,Liquor Store
"6689 Double Eagle Dr, Woodridge, Illinois, 60517",(630) 719-1111,60517,-88.07000999999997,41.76267000000007,Liquor Store
"639 E Boughton Rd, Bolingbrook, Illinois, 60440",(630) 739-6036,60440,-88.04395999999997,41.720470000000034,Liquor Store
"14903 Founders Xing, Homer Glen, Illinois, 60491",(708) 645-7000,60491,-87.93223999047892,41.61936999942316,Liquor Store
"510 Village Center Dr, Willowbrook, Illinois, 60527",(630) 887-0123,60527,-87.91253993609025,41.75212002394782,Liquor Store
"Barbs Way, Orland Park, Illinois, 60467",,60467,-87.88527,41.58402299999999,Liquor Store
"12701 S Ridgeland Ave, Palos Heights, Illinois, 60463",(708) 388-5918,60463,-87.77690002943032,41.66095996999277,Liquor Store
"10800 S Cicero Ave, Oak Lawn, Illinois, 60453",(708) 857-7151,60453,-87.74026007660564,41.69628996162556,Liquor Store
"10750 S Cicero Ave, Oak Lawn, Illinois, 60453",(708) 424-3580,60453,-87.74017001500359,41.696710051070504,Liquor Store
"10836 S Cicero Ave, Oak Lawn, Illinois, 60453",(708) 424-2202,60453,-87.74020999999999,41.69504000000006,Liquor Store
"10648 S Cicero Ave, Oak Lawn, Illinois, 60453",(708) 576-8201,60453,-87.74036999999998,41.69841000000008,Liquor Store
"5143 W 123rd St, Alsip, Illinois, 60803",(708) 396-1538,60803,-87.74759999999998,41.66885000000008,Liquor Store
"7030 W 159th St, Orland Park, Illinois, 60462",(708) 444-2114,60462,-87.79088999999999,41.602900000000034,Liquor Store
"7202 W 159th St, Orland Park, Illinois, 60462",(708) 429-7220,60462,-87.79494999999997,41.60287000000005,Liquor Store
"6713 163rd Pl, Tinley Park, Illinois, 60477",(708) 429-1330,60477,-87.78361997446473,41.59414992281746,Liquor Store
"7062 183rd St, Tinley Park, Illinois, 60477",(708) 342-2244,60477,-87.78997999999996,41.55901000000006,Liquor Store
"17020 Oak Park Ave, Tinley Park, Illinois, 60477",(708) 532-4409,60477,-87.78461005222425,41.58194007660574,Liquor Store
"15690 S Harlem Ave, Orland Park, Illinois, 60462",(708) 633-0200,60462,-87.79442999999998,41.606100000000026,Liquor Store
"8159 S Cicero Ave, Chicago, Illinois, 60652",(773) 582-0700,60652,-87.74040999999994,41.744020000000035,Liquor Store
"2900 W 87th St, Chicago, Illinois, 60652",(773) 434-7970,60652,-87.69489998889146,41.735610025535266,Liquor Store
"4955 W 95th St, Oak Lawn, Illinois, 60453",(708) 422-0099,60453,-87.74549005107042,41.71998995556607,Liquor Store
"4709 W 95th St, Oak Lawn, Illinois, 60453",(773) 925-8191,60453,-87.73887999999994,41.71987000000007,Liquor Store
"4585 Southwest Hwy, Oak Lawn, Illinois, 60453",(708) 422-0002,60453,-87.73602999999997,41.725190000000055,Liquor Store
"3152 W 95th St, Evergreen Park, Illinois, 60805",(708) 423-7700,60805,-87.70138999999995,41.720980000000054,Liquor Store
"3440 W 95th St, Evergreen Park, Illinois, 60805",(708) 422-4570,60805,-87.70890999999995,41.72094000000004,Liquor Store
"3342 W 95th St, Evergreen Park, Illinois, 60805",(708) 423-7677,60805,-87.70603999999997,41.72094000000004,Liquor Store
"8732 S Kedzie Ave, Evergreen Park, Illinois, 60805",(708) 636-4438,60805,-87.70254999999997,41.734230000000025,Liquor Store
"9860 S Kedzie Ave, Evergreen Park, Illinois, 60805",(708) 423-3510,60805,-87.70192999999995,41.71366000000006,Liquor Store
"4841 W 79th St, Burbank, Illinois, 60459",(708) 423-1745,60459,-87.74234999999999,41.74911000000003,Liquor Store
"7782 S Cicero Ave, Burbank, Illinois, 60459",(708) 499-1316,60459,-87.74179999999996,41.75150000000008,Liquor Store
"7206 W College Dr, Palos Heights, Illinois, 60463",(708) 361-5445,60463,-87.79899992166355,41.67530007891339,Liquor Store
"7152 W 127th St, Palos Heights, Illinois, 60463",(708) 923-0755,60463,-87.79557999999997,41.661140000000046,Liquor Store
"11906 S Harlem Ave, Palos Heights, Illinois, 60463",(708) 448-2669,60463,-87.79716999999994,41.674750000000074,Liquor Store
"7400 S Narragansett Ave, Chicago, Illinois, 60638",(708) 924-9500,60638,-87.7805500323149,41.75685000000004,Liquor Store
"6110 W 63rd St, Chicago, Illinois, 60638",(773) 788-0761,60638,-87.7745999339259,41.778050051070515,Liquor Store
"6533 W 63rd St, Chicago, Illinois, 60638",(773) 912-6832,60638,-87.78504997446475,41.77759999942316,Liquor Store
"7281 W 87th St, Bridgeview, Illinois, 60455",(708) 233-6887,60455,-87.80182999999994,41.732890000000054,Liquor Store
"7311 W 87th St, Bridgeview, Illinois, 60455",(708) 233-0826,60455,-87.80253992224044,41.73289006996929,Liquor Store
"7661 S 78th Ave, Bridgeview, Illinois, 60455",(708) 496-9900,60455,-87.81438997605218,41.7519400510705,Liquor Store
"8320 S Harlem Ave, Bridgeview, Illinois, 60455",(708) 529-3911,60455,-87.80000999999999,41.740530000000035,Liquor Store
"6101 S Archer Rd, Summit Argo, Illinois, 60501",(708) 496-8455,60501,-87.81270998831452,41.780589948929624,Liquor Store
"8807 W 95th St, Hickory Hills, Illinois, 60457",(708) 233-6603,60457,-87.83784993392588,41.717809945034475,Liquor Store
"9750 S Roberts Rd, Palos Hills, Illinois, 60465",(708) 576-8142,60465,-87.81769000504896,41.7130799489296,Liquor Store
"9646 W 131st St, Palos Park, Illinois, 60464",(708) 361-6016,60464,-87.85495999999995,41.65229000000005,Liquor Store
"103 Orland Park Pl, Orland Park, Illinois, 60462",(708) 226-9902,60462,-87.84942999999998,41.61199000000005,Liquor Store
"14402 John Humphrey Dr, Orland Park, Illinois, 60462",(708) 403-7100,60462,-87.84951003837442,41.627990022793966,Liquor Store
"14654 S La Grange Rd, Orland Park, Illinois, 60462",(708) 226-1200,60462,-87.85419999999993,41.62427000000008,Liquor Store
"15131 S La Grange Rd, Orland Park, Illinois, 60462",(708) 226-0566,60462,-87.85296999999997,41.614910000000066,Liquor Store
"14850 S La Grange Rd, Orland Park, Illinois, 60462",(708) 349-8516,60462,-87.85496999999998,41.62012000000004,Liquor Store
"272 Orland Square Dr, Orland Park, Illinois, 60462",(708) 873-0678,60462,-87.84435999999994,41.62018000000006,Liquor Store
"9614 W 143rd St, Orland Park, Illinois, 60462",(312) 401-3419,60462,-87.85517006333275,41.63047001283933,Liquor Store
"9420 W 143rd St, Orland Park, Illinois, 60462",(708) 403-3636,60462,-87.84980999999999,41.630840000000035,Liquor Store
"9105 W 151st St, Orland Park, Illinois, 60462",(708) 403-4236,60462,-87.8413099489295,41.616179994951054,Liquor Store
"9189 W 151st St, Orland Park, Illinois, 60462",(708) 226-0400,60462,-87.84321999999997,41.61557000000005,Liquor Store
"9040 W 159th St, Orland Park, Illinois, 60462",(708) 873-9540,60462,-87.83887999999996,41.60214000000008,Liquor Store
"9350 W 159th St, Orland Park, Illinois, 60462",(708) 873-9569,60462,-87.84649999999993,41.60149000000007,Liquor Store
"9237 159th St, Tinley Park, Illinois, 60487",(708) 226-9280,60487,-87.84400999999997,41.600220000000036,Liquor Store
"9320 171st St, Tinley Park, Illinois, 60487",(708) 873-1297,60487,-87.84535995224772,41.5799300766057,Liquor Store
"17119 88th Ave, Tinley Park, Illinois, 60487",(708) 468-8959,60487,-87.83207999999996,41.57919000000004,Liquor Store
"7950 167th St, Tinley Park, Illinois, 60477",(708) 532-6550,60477,-87.8120700255352,41.58745000115392,Liquor Store
"8010 171st St, Tinley Park, Illinois, 60477",(708) 444-7614,60477,-87.81375999999995,41.58041000000003,Liquor Store
"15845 S LaGrange Rd, Orland Park, Illinois, 60462",(708) 226-0100,60462,-87.85278997662911,41.6027800510705,Liquor Store
"7865 W 159th St, Tinley Park, Illinois, 60477",(708) 532-3113,60477,-87.81063992339426,41.60198993666724,Liquor Store
"11845 Southwest Hwy, Palos Heights, Illinois, 60463",(708) 448-8507,60463,-87.81404998499634,41.67665997778304,Liquor Store
"1312 N Cedar Rd, New Lenox, Illinois, 60451",(815) 485-3629,60451,-87.96592999999996,41.53022000000004,Liquor Store
"19829 S La Grange Rd, Mokena, Illinois, 60448",(708) 995-5787,60448,-87.85020991877893,41.53081003332557,Liquor Store
"7956 W Lincoln Hwy, Frankfort, Illinois, 60423",(779) 324-5158,60423,-87.80938991949913,41.50686005943772,Liquor Store
"590 Bankview Dr, Frankfort, Illinois, 60423",(815) 469-1151,60423,-87.8513600510704,41.51104993782112,Liquor Store
"459 W Nebraska St, Frankfort, Illinois, 60423",(815) 469-2107,60423,-87.86130006217893,41.497889996104924,Liquor Store
"10116 191st St, Mokena, Illinois, 60448",(708) 478-8141,60448,-87.86515005107043,41.543250015003665,Liquor Store
"8509 191st Pl, Mokena, Illinois, 60448",(708) 574-1196,60448,-87.82307999999995,41.54254991949924,Liquor Store
"9400 Enterprise Dr, Mokena, Illinois, 60448",(708) 478-6695,60448,-87.84613999999993,41.540260037220705,Liquor Store
"19844 Lakeview Way, Mokena, Illinois, 60448",(708) 479-7578,60448,-87.85339999999997,41.530050000000074,Liquor Store
"1200 S Cedar Rd, New Lenox, Illinois, 60451",(815) 485-4800,60451,-87.96515997158012,41.49445995441221,Liquor Store
"6005 S La Grange Rd, La Grange, Illinois, 60525",(708) 352-1832,60525,-87.86760999999996,41.78100000000006,Liquor Store
"90 Countryside Plz, La Grange, Illinois, 60525",(708) 579-2451,60525,-87.87136999999996,41.78123000000005,Liquor Store
"6101 East Ave, La Grange, Illinois, 60525",(708) 482-8200,60525,-87.85842995167079,41.77969997446485,Liquor Store
"5747 S Harlem Ave, Chicago, Illinois, 60638",(773) 788-9800,60638,-87.8011099922097,41.78699002553526,Liquor Store
"7147 W Archer Ave, Chicago, Illinois, 60638",(773) 586-0026,60638,-87.80059999999997,41.79195000000004,Liquor Store
"6656 W Archer Ave, Chicago, Illinois, 60638",(773) 306-1745,60638,-87.78895992339426,41.79224005164741,Liquor Store
"3808 Sunnyside Ave, Brookfield, Illinois, 60513",(708) 387-2525,60513,-87.84648004443396,41.82176000000004,Liquor Store
"3748 Grand Blvd, Brookfield, Illinois, 60513",(708) 255-5481,60513,-87.84447003332549,41.82257991949925,Liquor Store
"30 N La Grange Rd, La Grange, Illinois, 60525",(708) 352-9000,60525,-87.87004999999994,41.81756000000007,Liquor Store
"81 S La Grange Rd, La Grange, Illinois, 60525",(708) 639-4329,60525,-87.8695399844194,41.81298996667453,Liquor Store
"50 S La Grange Rd, La Grange, Illinois, 60525",(708) 352-6487,60525,-87.86961003390236,41.813630000000046,Liquor Store
"25 S Ashland Ave, La Grange, Illinois, 60525",(708) 352-4848,60525,-87.87228999999996,41.81462000000005,Liquor Store
"15 W Harris Ave, La Grange, Illinois, 60525",(708) 354-6887,60525,-87.87040002943033,41.8139700261122,Liquor Store
"4700 Gilbert Ave, Western Springs, Illinois, 60558",(708) 246-5516,60558,-87.88948999999997,41.80311000000006,Liquor Store
"929 Burlington Ave, Western Springs, Illinois, 60558",(708) 784-0200,60558,-87.90174999999994,41.808710000000076,Liquor Store
"925 Burlington Ave, Western Springs, Illinois, 60558",(708) 246-0893,60558,-87.90174996335624,41.80870997778303,Liquor Store
"915 Burlington Ave, Western Springs, Illinois, 60558",(708) 246-0380,60558,-87.9013099961048,41.80882999220977,Liquor Store
"5425 S La Grange Rd, La Grange, Illinois, 60525",(708) 354-0355,60525,-87.86859999999996,41.79176000000007,Liquor Store
"12 Grant Sq, Hinsdale, Illinois, 60521",(630) 887-4700,60521,-87.93247999999994,41.802760000000035,Liquor Store
"24 E Hinsdale Ave, Hinsdale, Illinois, 60521",(630) 323-4370,60521,-87.92836999999997,41.80265000000003,Liquor Store
"13 W 1st St, Hinsdale, Illinois, 60521",(630) 908-7175,60521,-87.93004999999994,41.801560000576956,Liquor Store
"26 W 1st St, Hinsdale, Illinois, 60521",(630) 655-1893,60521,-87.93048999999996,41.8015099849964,Liquor Store
"777 N York Rd, Hinsdale, Illinois, 60521",(630) 887-0088,60521,-87.92538996883884,41.81531007660572,Liquor Store
"51 S Washington St, Hinsdale, Illinois, 60521",(630) 789-2020,60521,-87.92920999999996,41.80176000000006,Liquor Store
"5817 W Madison St, Chicago, Illinois, 60644",(773) 379-7757,60644,-87.77061997446475,41.88012999552799,Liquor Store
"20 E Jackson Blvd, Chicago, Illinois, 60604",(212) 244-1111,60604,-87.6267800510704,41.878240007790346,Liquor Store
"136 S Dearborn St, Chicago, Illinois, 60603",(312) 263-0700,60603,-87.62936999999994,41.87966000000006,Liquor Store
"10 S Lasalle St, Chicago, Illinois, 60603",(312) 422-0722,60603,-87.63240999999994,41.881380000000036,Liquor Store
"17 E Monroe St, Chicago, Illinois, 60603",(312) 781-6900,60603,-87.62715997446475,41.88074995167088,Liquor Store
"117 N Wabash Ave, Chicago, Illinois, 60602",(312) 750-1755,60602,-87.62621999999999,41.88364000000007,Liquor Store
"108 N State St, Chicago, Illinois, 60602",(312) 658-0477,60602,-87.62793000447202,41.88379000000003,Liquor Store
"127 N Dearborn St, Chicago, Illinois, 60602",(312) 346-4328,60602,-87.62941999999998,41.88390000000004,Liquor Store
"4 E Madison St, Chicago, Illinois, 60602",(312) 263-8087,60602,-87.62773999999996,41.88208000000003,Liquor Store
"151 N Michigan Ave, Chicago, Illinois, 60601",(312) 540-1927,60601,-87.62439992281736,41.88471001832192,Liquor Store
"151 E Randolph St, Chicago, Illinois, 60601",(312) 291-8211,60601,-87.62281999999999,41.88426000000004,Liquor Store
"53 E Lake St, Chicago, Illinois, 60601",(312) 658-1250,60601,-87.62598999999994,41.885740000000055,Liquor Store
"16 W Randolph St, Chicago, Illinois, 60601",(312) 553-1550,60601,-87.6279199760522,41.88451003000731,Liquor Store
"26 W Randolph St, Chicago, Illinois, 60601",(312) 201-0511,60601,-87.62897999999996,41.88450000000006,Liquor Store
"100 W Randolph St, Chicago, Illinois, 60601",(312) 726-4015,60601,-87.63138001168538,41.884500033902455,Liquor Store
"201 N Clark St, Chicago, Illinois, 60601",(312) 239-1888,60601,-87.63094992166356,41.88605002553527,Liquor Store
"424 S Wabash Ave, Chicago, Illinois, 60605",(312) 588-4927,60605,-87.626060026689,41.876270000000034,Liquor Store
"511 S State St, Chicago, Illinois, 60605",(312) 291-8950,60605,-87.62758999999994,41.875350000000026,Liquor Store
"55 E Jackson Blvd, Chicago, Illinois, 60604",(312) 235-0315,60604,-87.62571997446474,41.87822994503446,Liquor Store
"333 S State St, Chicago, Illinois, 60604",(312) 663-9775,60604,-87.62762993334898,41.87753002553529,Liquor Store
"27 W Jackson Blvd, Chicago, Illinois, 60604",(312) 360-1108,60604,-87.62863999999996,41.87817000000007,Liquor Store
"175 W Jackson Blvd, Chicago, Illinois, 60604",(312) 360-1977,60604,-87.63321997446474,41.878099918922345,Liquor Store
"6 W Maple St, Chicago, Illinois, 60610",(312) 664-7270,60610,-87.62871999999999,41.90190003332555,Liquor Store
"70 E Oak St, Chicago, Illinois, 60611",(312) 664-6223,60611,-87.6257000255352,41.90082000057697,Liquor Store
"68 W Hubbard St, Chicago, Illinois, 60654",(312) 329-6500,60654,-87.63077999999996,41.89006003332555,Liquor Store
"635 N State St, Chicago, Illinois, 60654",(312) 475-0641,60654,-87.62808999999999,41.89354000000003,Liquor Store
"615 N State St, Chicago, Illinois, 60654",(312) 374-4144,60654,-87.62807999999995,41.89288000000005,Liquor Store
"401 N Michigan Ave, Chicago, Illinois, 60611",(312) 943-4200,60611,-87.62412999999998,41.88939000000005,Liquor Store
"445 N Michigan Ave, Chicago, Illinois, 60611",,60611,-87.62406994330361,41.89035005554255,Liquor Store
"520 N Michigan Ave, Chicago, Illinois, 60611",(312) 527-1010,60611,-87.62415999999996,41.89156000000003,Liquor Store
"600 E Grand Ave, Chicago, Illinois, 60611",(312) 595-5596,60611,-87.60835994892949,41.89211999163284,Liquor Store
"101 E Erie St, Chicago, Illinois, 60611",(312) 337-4161,60611,-87.62504999999999,41.89410998110129,Liquor Store
"259 E Erie St, Chicago, Illinois, 60611",(312) 255-1130,60611,-87.6207700255352,41.89415998499639,Liquor Store
"301 E North Water St, Chicago, Illinois, 60611",(312) 245-9130,60611,-87.6202199616255,41.88954995888427,Liquor Store
"633 N Wells St, Chicago, Illinois, 60654",(312) 255-0340,60654,-87.63407999999998,41.89340000000004,Liquor Store
"348 N Clark St, Chicago, Illinois, 60654",(312) 321-1473,60654,-87.63104999999996,41.88851000000005,Liquor Store
"820 N Michigan Ave, Chicago, Illinois, 60611",(312) 337-7711,60611,-87.62487999999996,41.89748000000003,Liquor Store
"836 N Michigan Ave, Chicago, Illinois, 60611",(312) 914-4155,60611,-87.62410999999997,41.89793000000003,Liquor Store
"900 N Michigan Ave, Chicago, Illinois, 60611",(312) 397-1243,60611,-87.62414001341614,41.899260081077756,Liquor Store
"50 E Walton St, Chicago, Illinois, 60611",(312) 573-1600,60611,-87.62637002553521,41.900000033325576,Liquor Store
"875 N Michigan Ave, Chicago, Illinois, 60611",(312) 664-0417,60611,-87.62406999999996,41.898750000000064,Liquor Store
"845 N Michigan Ave, Chicago, Illinois, 60611",(312) 266-4290,60611,-87.62404996436679,41.898029974464805,Liquor Store
"835 N Michigan Ave, Chicago, Illinois, 60611",(312) 867-5500,60611,-87.62406999999996,41.897710000000075,Liquor Store
"185 N Wabash Ave, Chicago, Illinois, 60601",(312) 345-1710,60601,-87.62623996667445,41.88551997446484,Liquor Store
"18 W Hubbard St, Chicago, Illinois, 60654",(312) 955-8018,60654,-87.62866999999994,41.89008000000007,Liquor Store
"400 N State St, Chicago, Illinois, 60654",(312) 265-1240,60654,-87.62805002221697,41.88952000000006,Liquor Store
"444 N Lasalle St, Chicago, Illinois, 60654",(312) 222-6200,60654,-87.63259005554247,41.8904899744648,Liquor Store
"541 N Wells St, Chicago, Illinois, 60654",(312) 661-1306,60654,-87.63405993003074,41.892010025535285,Liquor Store
"216 W Jackson Blvd, Chicago, Illinois, 60606",(312) 877-5373,60606,-87.6344800510704,41.87813004443404,Liquor Store
"1130 S Wabash Ave, Chicago, Illinois, 60605",(312) 374-4502,60605,-87.62586007775946,41.86843993060775,Liquor Store
"222 S Riverside Plz, Chicago, Illinois, 60606",(312) 876-6887,60606,-87.63836006939225,41.87867997446483,Liquor Store
"1243 S Wabash Ave, Chicago, Illinois, 60605",(312) 922-7403,60605,-87.62576998499632,41.86625998167819,Liquor Store
"1239 S Michigan Ave, Chicago, Illinois, 60605",(312) 566-9999,60605,-87.62409999999994,41.866460000000075,Liquor Store
"1801 S Canal St, Chicago, Illinois, 60616",(312) 243-7080,60616,-87.63862995556595,41.857070069969254,Liquor Store
"229 W Cermak Rd, Chicago, Illinois, 60616",(312) 225-1988,60616,-87.63328002553521,41.8527599267126,Liquor Store
"2260 S Wentworth Ave, Chicago, Illinois, 60616",(312) 842-6398,60616,-87.63200006996918,41.85113000000007,Liquor Store
"2247 S Wentworth Ave, Chicago, Illinois, 60616",(312) 842-1171,60616,-87.63194999552788,41.85153002553528,Liquor Store
"2400 S Wentworth Ave, Chicago, Illinois, 60616",(312) 791-1618,60616,-87.63194002611209,41.84904000000006,Liquor Store
"2117 S China Pl, Chicago, Illinois, 60616",(312) 328-9998,60616,-87.63306993782102,41.85466994503449,Liquor Store
"1310 S Wabash Ave, Chicago, Illinois, 60605",(312) 566-9817,60605,-87.62579003390239,41.86539000000005,Liquor Store
"117 N Clinton St, Chicago, Illinois, 60661",(312) 207-1261,60661,-87.64119999999997,41.88355000000007,Liquor Store
"131 N Clinton St, Chicago, Illinois, 60661",(312) 831-2729,60661,-87.64122999999995,41.883890000000065,Liquor Store
"500 W Madison St, Chicago, Illinois, 60661",(312) 463-0983,60661,-87.64045005107039,41.881880026689096,Liquor Store
"131 S Clinton St, Chicago, Illinois, 60661",(312) 454-2200,60661,-87.64106999999996,41.879890000000046,Liquor Store
"117 S Clinton St, Chicago, Illinois, 60661",(312) 775-9028,60661,-87.64107992281737,41.880010025535285,Liquor Store
"727 W Lake St, Chicago, Illinois, 60661",(312) 454-5514,60661,-87.64672999999999,41.8856699372442,Liquor Store
"1139 W Fulton Market, Chicago, Illinois, 60607",(312) 226-5768,60607,-87.65586999999994,41.88666000000006,Liquor Store
"1047 W Madison St, Chicago, Illinois, 60607",(312) 666-5111,60607,-87.65398999999996,41.88161000000008,Liquor Store
"908 W Randolph St, Chicago, Illinois, 60607",(312) 563-0145,60607,-87.6502400255352,41.88445006607414,Liquor Store
"902 W Randolph St, Chicago, Illinois, 60607",(312) 226-7552,60607,-87.64990999999998,41.88445000000007,Liquor Store
"810 W Randolph St, Chicago, Illinois, 60607",(312) 666-2222,60607,-87.64798002553516,41.88449004053889,Liquor Store
"345 N Aberdeen St, Chicago, Illinois, 60607",(312) 666-7861,60607,-87.65437999999995,41.88798000000003,Liquor Store
"1307 W Lake St, Chicago, Illinois, 60607",(312) 226-2600,60607,-87.65928999999994,41.88575000000003,Liquor Store
"842 W Lake St, Chicago, Illinois, 60607",(312) 421-4096,60607,-87.6491800255352,41.885660007790314,Liquor Store
"801 W Jackson Blvd, Chicago, Illinois, 60607",(312) 332-1634,60607,-87.64730999999995,41.87793000000005,Liquor Store
"2802 S Wentworth Ave, Chicago, Illinois, 60616",(312) 808-1186,60616,-87.63196007328743,41.842379941139306,Liquor Store
"1212 W Taylor St, Chicago, Illinois, 60607",(312) 421-5440,60607,-87.65734995614288,41.86945001500369,Liquor Store
"1056 W Taylor St, Chicago, Illinois, 60607",(312) 421-5130,60607,-87.65332999999998,41.86950000000007,Liquor Store
"1320 W Taylor St, Chicago, Illinois, 60607",,60607,-87.65981999999997,41.86940000000004,Liquor Store
"1214 W Taylor St, Chicago, Illinois, 60607",(312) 496-3366,60607,-87.6574000255352,41.86944004053892,Liquor Store
"1132 S Jefferson St, Chicago, Illinois, 60607",(312) 768-4400,60607,-87.64223002668905,41.86800994892963,Liquor Store
"601 W Roosevelt Rd, Chicago, Illinois, 60607",(312) 243-0094,60607,-87.64242993782103,41.86718998831465,Liquor Store
"737 W Randolph St, Chicago, Illinois, 60661",(312) 638-0700,60661,-87.64715002553521,41.88426999942311,Liquor Store
"1326 W Madison St, Chicago, Illinois, 60607",(312) 981-7100,60607,-87.66074999999995,41.88157005886081,Liquor Store
"1645 W Jackson Blvd, Chicago, Illinois, 60612",(312) 243-4276,60612,-87.66865001832183,41.87756998110127,Liquor Store
"1041 W Taylor St, Chicago, Illinois, 60607",(312) 829-5888,60607,-87.65279997446476,41.86946994835267,Liquor Store
"3661 S Iron St, Chicago, Illinois, 60609",(773) 847-4126,60609,-87.65931995888415,41.82694005107049,Liquor Store
"3752 S Ashland Ave, Chicago, Illinois, 60609",(773) 523-8891,60609,-87.66549007718254,41.82532000000003,Liquor Store
"3133 S Archer Ave, Chicago, Illinois, 60608",(773) 927-1282,60608,-87.66669999942303,41.837059973887904,Liquor Store
"931 S Western Ave, Chicago, Illinois, 60612",(312) 733-5092,60612,-87.6860299738878,41.86932000000007,Liquor Store
"4305 S Halsted St, Chicago, Illinois, 60609",(773) 624-9900,60609,-87.64567999552789,41.81596995614298,Liquor Store
"W Cermak Rd, Chicago, Illinois, 60623",(773) 762-9446,60623,-87.70088999999996,41.85185000000007,Liquor Store
"2656 S Homan Ave, Chicago, Illinois, 60623",(773) 522-0524,60623,-87.70986003000726,41.84281000000004,Liquor Store
"2110 S Marshall Blvd, Chicago, Illinois, 60623",(773) 522-0100,60623,-87.69914003837447,41.85322997446485,Liquor Store
"3410 W 31st St, Chicago, Illinois, 60623",(773) 847-6969,60623,-87.71019002553521,41.83716006217899,Liquor Store
"3424 W 26th St, Chicago, Illinois, 60623",(773) 277-1760,60623,-87.71093999999994,41.84447000000006,Liquor Store
"3300 W 26th St, Chicago, Illinois, 60623",(773) 522-3816,60623,-87.70773002553517,41.84452005886079,Liquor Store
"3117 W 26th St, Chicago, Illinois, 60623",(773) 254-0006,60623,-87.70316005496554,41.844389970569665,Liquor Store
"3311 W 26th St, Chicago, Illinois, 60623",(773) 762-2598,60623,-87.70824005107039,41.84401003332557,Liquor Store
"2543 S Kedzie Ave, Chicago, Illinois, 60623",(773) 247-1553,60623,-87.70502991892224,41.84508002553525,Liquor Store
"2732 W Cermak Rd, Chicago, Illinois, 60608",(773) 376-4800,60608,-87.69424000779027,41.85210000389518,Liquor Store
"2100 S California Ave, Chicago, Illinois, 60608",(773) 376-8828,60608,-87.69552000447202,41.85363000000007,Liquor Store
"1111 W 40th St, Chicago, Illinois, 60609",(773) 254-7900,60609,-87.65407993003073,41.82103996220248,Liquor Store
"4107 S Ashland Ave, Chicago, Illinois, 60609",(773) 254-0100,60609,-87.66518999552791,41.81909005496564,Liquor Store
"3801 S Sangamon St, Chicago, Illinois, 60609",(773) 823-1421,60609,-87.64916995556594,41.82522000000006,Liquor Store
"3341 S Lituanica Ave, Chicago, Illinois, 60608",(773) 254-6376,60608,-87.64854996277934,41.833530025535254,Liquor Store
"2907 S Archer Ave, Chicago, Illinois, 60608",(773) 523-1121,60608,-87.65793995946107,41.84160993392594,Liquor Store
"3142 S Morgan St, Chicago, Illinois, 60608",(773) 254-7441,60608,-87.65112001168539,41.83665005107047,Liquor Store
"4146 S Archer Ave, Chicago, Illinois, 60632",(872) 444-5145,60632,-87.69767003332545,41.81814006607415,Liquor Store
"1855 S Blue Island Ave, Chicago, Illinois, 60608",(312) 226-9600,60608,-87.66185999610482,41.85676993782109,Liquor Store
"2266 S Blue Island Ave, Chicago, Illinois, 60608",(773) 254-3351,60608,-87.66936007328742,41.85101005886077,Liquor Store
"1711 W Cermak Rd, Chicago, Illinois, 60608",(773) 847-1100,60608,-87.66934999999995,41.851890000000026,Liquor Store
"2404 S Wolcott Ave, Chicago, Illinois, 60608",(773) 242-2240,60608,-87.67218004501092,41.84414005496566,Liquor Store
"1314 W 21st Pl, Chicago, Illinois, 60608",(312) 829-0198,60608,-87.66079999999994,41.85332000000005,Liquor Store
"1808 S Ashland Ave, Chicago, Illinois, 60608",(312) 666-5180,60608,-87.66618000447203,41.85745000000003,Liquor Store
"1509 W 18th St, Chicago, Illinois, 60608",(312) 738-2412,60608,-87.66410999999994,41.85781000000003,Liquor Store
"1639 W 18th St, Chicago, Illinois, 60608",(312) 243-2308,60608,-87.66770999999994,41.857749948352705,Liquor Store
"1550 W 18th St, Chicago, Illinois, 60608",(312) 226-0106,60608,-87.66552999999999,41.857840054965635,Liquor Store
"2119 S Halsted St, Chicago, Illinois, 60608",(773) 523-7437,60608,-87.64649993003071,41.853699919499235,Liquor Store
"809 W 58th St, Chicago, Illinois, 60621",(773) 483-4639,60621,-87.64551999999998,41.78879999220975,Liquor Store
"4907 S Ashland Ave, Chicago, Illinois, 60609",(773) 843-2200,60609,-87.66483999999997,41.80442000000005,Liquor Store
"4516 S Ashland Ave, Chicago, Illinois, 60609",(773) 247-1885,60609,-87.6650500227939,41.81170000000003,Liquor Store
"1001 W 45th St, Chicago, Illinois, 60609",(773) 376-8280,60609,-87.65052999999995,41.81239000000005,Liquor Store
"2051 W 47th St, Chicago, Illinois, 60609",(773) 254-6408,60609,-87.67667997446472,41.80848992281745,Liquor Store
"4401 S Oakley Ave, Chicago, Illinois, 60609",(773) 579-1291,60609,-87.68211999999994,41.81350000000003,Liquor Store
"630 W 26th St, Chicago, Illinois, 60616",(312) 225-6568,60616,-87.64279999999997,41.84539006607413,Liquor Store
"4723 S Washtenaw Ave, Chicago, Illinois, 60632",(773) 376-4100,60632,-87.69171999999998,41.807450000000074,Liquor Store
"2456 W 47th Pl, Chicago, Illinois, 60632",(773) 376-3880,60632,-87.68666005107042,41.80755006607417,Liquor Store
"6301 S Wentworth Ave, Chicago, Illinois, 60621",(773) 224-1926,60621,-87.63012994445748,41.779780025535274,Liquor Store
"200 W North Ave, Chicago, Illinois, 60610",(708) 453-4646,60610,-87.63475999999997,41.91118000000006,Liquor Store
"1710 N Wells St, Chicago, Illinois, 60614",(312) 255-0724,60614,-87.63479999999998,41.91339000000005,Liquor Store
"1233 N Wells St, Chicago, Illinois, 60610",(312) 229-1400,60610,-87.63447998441943,41.90482005107048,Liquor Store
"1512 N Wells St, Chicago, Illinois, 60610",(312) 274-0378,60610,-87.63470004443398,41.90957000000003,Liquor Store
"1538 N Wells St, Chicago, Illinois, 60610",(312) 642-5106,60610,-87.63471006996922,41.91026000000005,Liquor Store
"1532 N Wells St, Chicago, Illinois, 60610",(312) 943-1777,60610,-87.63471006996922,41.91012000000006,Liquor Store
"10 E Division St, Chicago, Illinois, 60610",(312) 642-7837,60610,-87.62832999999995,41.90397000000007,Liquor Store
"343 W Erie St, Chicago, Illinois, 60654",(312) 268-2444,60654,-87.63772999999998,41.8938999922098,Liquor Store
"15 W Division St, Chicago, Illinois, 60610",(312) 337-4349,60610,-87.62934999999999,41.903929999423156,Liquor Store
"678 N Orleans St, Chicago, Illinois, 60654",(312) 664-5496,60654,-87.63716005164736,41.89462000000003,Liquor Store
"600 W Chicago Ave, Chicago, Illinois, 60654",(312) 822-2900,60654,-87.64281006059146,41.896490009521095,Liquor Store
"2021 W Fulton St, Chicago, Illinois, 60612",(312) 982-2196,60612,-87.67782999999997,41.88673000000006,Liquor Store
"2323 W Fulton St, Chicago, Illinois, 60612",(312) 226-0932,60612,-87.68520999999998,41.886609999423115,Liquor Store
"935 N Damen Ave, Chicago, Illinois, 60622",(773) 772-5771,60622,-87.67710994445744,41.8987800255353,Liquor Store
"859 N Damen Ave, Chicago, Illinois, 60622",(773) 235-3116,60622,-87.6770599955279,41.89761000000004,Liquor Store
"1916 W Chicago Ave, Chicago, Illinois, 60622",(773) 904-1414,60622,-87.6754100255352,41.896000033325556,Liquor Store
"1636 W Chicago Ave, Chicago, Illinois, 60622",(312) 829-1458,60622,-87.66872002553521,41.896080000576944,Liquor Store
"1756 W Chicago Ave, Chicago, Illinois, 60622",(312) 850-1813,60622,-87.6719400255352,41.89603000057696,Liquor Store
"1303 N Milwaukee Ave, Chicago, Illinois, 60622",(773) 252-4081,60622,-87.66952999999995,41.905350000000055,Liquor Store
"2120 W Division St, Chicago, Illinois, 60622",(872) 808-2440,60622,-87.6805900510704,41.903140011685466,Liquor Store
"2642 W Division St, Chicago, Illinois, 60622",(773) 384-5770,60622,-87.6936700255352,41.902960011685465,Liquor Store
"740 N Damen Ave, Chicago, Illinois, 60622",(312) 733-4060,60622,-87.67705999999998,41.89536000000004,Liquor Store
"1821 W Hubbard St, Chicago, Illinois, 60622",(312) 455-0101,60622,-87.67285997446476,41.889779922817475,Liquor Store
"2636 W Chicago Ave, Chicago, Illinois, 60622",(872) 802-4868,60622,-87.6932200510704,41.89572005886078,Liquor Store
"2249 W Hubbard St, Chicago, Illinois, 60612",(312) 733-5070,60612,-87.68382999942304,41.8895799811013,Liquor Store
"756 N Western Ave, Chicago, Illinois, 60612",(773) 227-1333,60612,-87.68684999999994,41.89534000000003,Liquor Store
"2145 W Division St, Chicago, Illinois, 60622",(773) 235-2244,60622,-87.68148997446474,41.90307992281749,Liquor Store
"2158 W Chicago Ave, Chicago, Illinois, 60622",(773) 384-5562,60622,-87.6817800255352,41.89587000057696,Liquor Store
"1801 W Division St, Chicago, Illinois, 60622",(773) 782-4400,60622,-87.6725500255352,41.90321999220975,Liquor Store
"1670 W Division St, Chicago, Illinois, 60622",(773) 252-6499,60622,-87.67022999999995,41.903310077182645,Liquor Store
"1367 W Erie St, Chicago, Illinois, 60642",(312) 374-3487,60642,-87.66200999999995,41.89343995946119,Liquor Store
"545 W Diversey Pkwy, Chicago, Illinois, 60614",(773) 525-7775,60614,-87.64323999999993,41.93280000000004,Liquor Store
"2510 N Clybourn Ave, Chicago, Illinois, 60614",(773) 525-7006,60614,-87.67315999999994,41.92725000000007,Liquor Store
"2747 N Clark St, Chicago, Illinois, 60614",(773) 244-8202,60614,-87.64483999999999,41.932570000000055,Liquor Store
"2732 N Clark St, Chicago, Illinois, 60614",(773) 880-1266,60614,-87.64479000447203,41.93221993060776,Liquor Store
"2468 N Clark St, Chicago, Illinois, 60614",(773) 661-2453,60614,-87.6415500011538,41.92733000000004,Liquor Store
"1416 W Irving Park Rd, Chicago, Illinois, 60613",(773) 697-8529,60613,-87.66502002553517,41.954350077182646,Liquor Store
"3721 N Southport Ave, Chicago, Illinois, 60613",(773) 799-8683,60613,-87.66406999999998,41.94963000000007,Liquor Store
"733 W Sheridan Rd, Chicago, Illinois, 60613",(773) 857-0425,60613,-87.6492399489295,41.952729926712585,Liquor Store
"3738 N Broadway St, Chicago, Illinois, 60613",(773) 661-1164,60613,-87.64908999999994,41.95030000000003,Liquor Store
"3530 N Southport Ave, Chicago, Illinois, 60657",(773) 360-1320,60657,-87.66401000836716,41.946060000000045,Liquor Store
"1658 W Belmont Ave, Chicago, Illinois, 60657",(773) 244-6415,60657,-87.6709699233943,41.93968000057697,Liquor Store
"1351 W Belmont Ave, Chicago, Illinois, 60657",(773) 327-6934,60657,-87.66307999999998,41.93970993392598,Liquor Store
"1238 W Belmont Ave, Chicago, Illinois, 60657",(773) 880-0460,60657,-87.66047006939225,41.939790069969305,Liquor Store
"3166 N Lincoln Ave, Chicago, Illinois, 60657",(773) 960-6267,60657,-87.66817999999995,41.939310000000035,Liquor Store
"3501 N Lincoln Ave, Chicago, Illinois, 60657",(773) 248-6272,60657,-87.67243999999994,41.94512000000003,Liquor Store
"2878 N Lincoln Ave, Chicago, Illinois, 60657",(773) 880-5338,60657,-87.66064999999998,41.93390000000005,Liquor Store
"3356 N Lincoln Ave, Chicago, Illinois, 60657",(773) 871-6888,60657,-87.67092999999994,41.94292000000007,Liquor Store
"3055 N Sheffield Ave, Chicago, Illinois, 60657",(773) 697-3317,60657,-87.65402998831452,41.93795998167821,Liquor Store
"3308 N Broadway, Chicago, Illinois, 60657",(773) 477-6100,60657,-87.64447999999999,41.94219000000004,Liquor Store
"3123 N Broadway St, Chicago, Illinois, 60657",(773) 348-8058,60657,-87.64432999999997,41.93826000000007,Liquor Store
"3241 N Broadway St, Chicago, Illinois, 60657",(773) 248-8433,60657,-87.64441996277931,41.941470025535295,Liquor Store
"2804 N Clark St, Chicago, Illinois, 60657",(773) 549-7800,60657,-87.64502999999996,41.932900000000075,Liquor Store
"3178 N Clark St, Chicago, Illinois, 60657",(773) 327-1023,60657,-87.65051999999997,41.939760000000035,Liquor Store
"2806 N Clark St, Chicago, Illinois, 60657",(773) 296-6304,60657,-87.64508999999998,41.932990000000075,Liquor Store
"3338 N Clark St, Chicago, Illinois, 60657",(773) 857-3039,60657,-87.65289999999999,41.94268000000005,Liquor Store
"3510 N Halsted St, Chicago, Illinois, 60657",(773) 698-7031,60657,-87.64946999999995,41.945760000000064,Liquor Store
"2815 N Ashland Ave, Chicago, Illinois, 60657",(773) 880-8400,60657,-87.66788999999994,41.93296000000004,Liquor Store
"1408 W Diversey Pkwy, Chicago, Illinois, 60614",(773) 857-2989,60614,-87.66401002553516,41.93249002611219,Liquor Store
"4553 N Clark St, Chicago, Illinois, 60640",(773) 989-1025,60640,-87.66666997720606,41.96513995224783,Liquor Store
"2009 W Roscoe St, Chicago, Illinois, 60618",(773) 661-9519,60618,-87.67886002553519,41.94318992281746,Liquor Store
"3938 N Sheridan Rd, Chicago, Illinois, 60613",(773) 857-3041,60613,-87.65455002668904,41.95389000000006,Liquor Store
"1880 W Fullerton Ave, Chicago, Illinois, 60614",(773) 772-8911,60614,-87.67547006939229,41.925080053378174,Liquor Store
"2450 N Clark St, Chicago, Illinois, 60614",(773) 929-7759,60614,-87.6412800405388,41.92686998889157,Liquor Store
"3258 N Southport Ave, Chicago, Illinois, 60657",(773) 528-8226,60657,-87.66390004443399,41.94146000000006,Liquor Store
"3325 N Southport Ave, Chicago, Illinois, 60657",(773) 472-1601,60657,-87.6638799516708,41.94234002553526,Liquor Store
"3446 N Southport Ave, Chicago, Illinois, 60657",(773) 270-4272,60657,-87.66398003722058,41.94478995614294,Liquor Store
"2917 N Sheffield Ave, Chicago, Illinois, 60657",(773) 281-8188,60657,-87.65392999552792,41.935019948929614,Liquor Store
"3358 N Sheffield Ave, Chicago, Illinois, 60657",(773) 404-2151,60657,-87.65421999999995,41.94345000000004,Liquor Store
"2934 N Sheffield Ave, Chicago, Illinois, 60657",(773) 770-0700,60657,-87.65399006275582,41.93548000000004,Liquor Store
"2816 N Halsted St, Chicago, Illinois, 60657",(773) 248-5933,60657,-87.64904003000723,41.93322000000006,Liquor Store
"4138 N Lincoln Ave, Chicago, Illinois, 60618",(773) 857-1793,60618,-87.68078003722063,41.957010000000025,Liquor Store
"4264 N Lincoln Ave, Chicago, Illinois, 60618",(773) 281-1007,60618,-87.68253005886066,41.95949996335636,Liquor Store
"3724 N Clark St, Chicago, Illinois, 60613",(773) 248-3330,60613,-87.65855006607406,41.949729963356354,Liquor Store
"3530 N Clark St, Chicago, Illinois, 60657",(773) 789-8864,60657,-87.65583003722058,41.94633994503445,Liquor Store
"1970 W Montrose Ave, Chicago, Illinois, 60613",(773) 697-8204,60613,-87.67839999999995,41.96151000000003,Liquor Store
"2070 N Clybourn Ave, Chicago, Illinois, 60614",(773) 404-3475,60614,-87.66165995888416,41.919369940562426,Liquor Store
"1134 W Armitage Ave, Chicago, Illinois, 60614",(773) 871-4640,60614,-87.65685999999994,41.91810000000004,Liquor Store
"1009 W Armitage Ave, Chicago, Illinois, 60614",(312) 733-2700,60614,-87.65397993392587,41.91807999220975,Liquor Store
"951 W Armitage Ave, Chicago, Illinois, 60614",(773) 296-9866,60614,-87.65289002553521,41.91807995946117,Liquor Store
"904 W Armitage Ave, Chicago, Illinois, 60614",(312) 642-3726,60614,-87.65128002553519,41.918150051647444,Liquor Store
"958 W Armitage Ave, Chicago, Illinois, 60614",(773) 649-9644,60614,-87.65319999999997,41.91813002611218,Liquor Store
"2223 N Clybourn Ave, Chicago, Illinois, 60614",(773) 348-5070,60614,-87.66505997388782,41.92212004775225,Liquor Store
"2345 N Clark St, Chicago, Illinois, 60614",(773) 871-2916,60614,-87.63995999999997,41.92480000000006,Liquor Store
"2010 N Halsted St, Chicago, Illinois, 60614",(312) 265-0259,60614,-87.6485500372206,41.918570000000045,Liquor Store
"1964 N Halsted St, Chicago, Illinois, 60614",(773) 549-3883,60614,-87.64852005554249,41.917859948929625,Liquor Store
"1944 N Damen Ave, Chicago, Illinois, 60647",(773) 384-4418,60647,-87.67763004443394,41.91717997446483,Liquor Store
"2263 N Lincoln Ave, Chicago, Illinois, 60614",(773) 348-7200,60614,-87.64565999999996,41.92326000000003,Liquor Store
"2013 W North Ave, Chicago, Illinois, 60647",(773) 782-0450,60647,-87.67807997446477,41.91040996335632,Liquor Store
"1610 W North Ave, Chicago, Illinois, 60622",(773) 342-8181,60622,-87.66806999999994,41.91064000000006,Liquor Store
"1927 W North Ave, Chicago, Illinois, 60622",(773) 772-4422,60622,-87.67609999999996,41.91047000000003,Liquor Store
"1469 N Milwaukee Ave, Chicago, Illinois, 60622",(773) 384-1439,60622,-87.67457995946107,41.908560066074145,Liquor Store
"5226 S Harper Ave, Chicago, Illinois, 60615",(773) 675-6731,60615,-87.58911999999998,41.80018000000007,Liquor Store
"1465 E Hyde Park Blvd, Chicago, Illinois, 60615",(773) 256-1400,60615,-87.58942999999994,41.80243000000007,Liquor Store
"1226 E 53rd St, Chicago, Illinois, 60615",(773) 324-7100,60615,-87.59546999999998,41.79977000000008,Liquor Store
"1512 E 53rd St, Chicago, Illinois, 60615",(773) 667-5700,60615,-87.58833002553519,41.79958002611221,Liquor Store
"1543 E 87th St, Chicago, Illinois, 60619",(773) 374-9732,60619,-87.58670999999998,41.73675000000003,Liquor Store
"412 E 87th St, Chicago, Illinois, 60619",(773) 224-7200,60619,-87.61380002553517,41.73656003332554,Liquor Store
"9204 S Cottage Grove Ave, Chicago, Illinois, 60619",(708) 692-0658,60619,-87.60462999999999,41.727280000000064,Liquor Store
"8329 S Cottage Grove Ave, Chicago, Illinois, 60619",(773) 651-3888,60619,-87.60498992613557,41.74309002553525,Liquor Store
"8154 S Cottage Grove Ave, Chicago, Illinois, 60619",(773) 322-4808,60619,-87.60509999999994,41.74600000000004,Liquor Store
"754 E 82nd St, Chicago, Illinois, 60619",(773) 994-6323,60619,-87.60572999999994,41.74580000000003,Liquor Store
"2901 E 79th St, Chicago, Illinois, 60649",(773) 731-9409,60649,-87.55388999999997,41.75186994113931,Liquor Store
"2709 E 79th St, Chicago, Illinois, 60649",(773) 374-0468,60649,-87.55848999999995,41.751810000000035,Liquor Store
"3019 E 91st St, Chicago, Illinois, 60617",(773) 978-6639,60617,-87.55031999999994,41.73002999942315,Liquor Store
"8933 S Commercial Ave, Chicago, Illinois, 60617",(773) 933-7651,60617,-87.55127995167081,41.732630025535286,Liquor Store
"8548 S Commercial Ave, Chicago, Illinois, 60617",(773) 374-0673,60617,-87.55147999999997,41.73961000000003,Liquor Store
"8712 S Commercial Ave, Chicago, Illinois, 60617",(773) 359-4418,60617,-87.55143008107771,41.736920000000055,Liquor Store
"2234 E 71st St, Chicago, Illinois, 60649",(773) 363-9330,60649,-87.57003999999995,41.76630000000006,Liquor Store
"1751 E 75th St, Chicago, Illinois, 60649",(773) 256-0800,60649,-87.58157999999997,41.75863000000004,Liquor Store
"1536 E 75th St, Chicago, Illinois, 60619",(773) 684-7000,60619,-87.58683002553516,41.75878002611222,Liquor Store
"1519 E 73rd Pl, Chicago, Illinois, 60619",(773) 324-4372,60619,-87.58751999999998,41.761459973887895,Liquor Store
"10538 S Ewing Ave, Chicago, Illinois, 60617",(773) 734-2683,60617,-87.53529005554245,41.70341002553528,Liquor Store
"508 E 71st St, Chicago, Illinois, 60619",(773) 488-2525,60619,-87.61229999999995,41.76580000000007,Liquor Store
"444 E 79th St, Chicago, Illinois, 60619",(773) 874-6295,60619,-87.61315005107042,41.751150077182665,Liquor Store
"7100 S Rhodes Ave, Chicago, Illinois, 60619",(773) 651-7460,60619,-87.61164003000724,41.765540000000044,Liquor Store
"658 E 75th St, Chicago, Illinois, 60619",(773) 488-1800,60619,-87.60810999999995,41.75855000000007,Liquor Store
"8615 S Stony Island Ave, Chicago, Illinois, 60617",(773) 734-6700,60617,-87.58521994445746,41.738230051070495,Liquor Store
"4014 W Armitage Ave, Chicago, Illinois, 60639",(773) 384-4410,60639,-87.72722002553519,41.91717005164742,Liquor Store
"3415 W Belmont Ave, Chicago, Illinois, 60618",(773) 588-5780,60618,-87.71311002553517,41.93924994835271,Liquor Store
"2755 W Belmont Ave, Chicago, Illinois, 60618",(773) 961-7654,60618,-87.69706999999994,41.93937000000005,Liquor Store
"2950 W Belmont Ave, Chicago, Illinois, 60618",(773) 478-4723,60618,-87.70217002553517,41.93939002611222,Liquor Store
"3127 N Milwaukee Ave, Chicago, Illinois, 60618",(773) 267-7225,60618,-87.72154999999998,41.937730000000045,Liquor Store
"2976 N Milwaukee Ave, Chicago, Illinois, 60618",(773) 645-1692,60618,-87.71788999999995,41.935460000000035,Liquor Store
"3042 N Milwaukee Ave, Chicago, Illinois, 60618",(773) 276-7187,60618,-87.71953999999994,41.93647000000004,Liquor Store
"3103 N Milwaukee Ave, Chicago, Illinois, 60618",(773) 583-0402,60618,-87.72073999999998,41.937310000000025,Liquor Store
"2141 W Armitage Ave, Chicago, Illinois, 60647",(773) 278-1118,60647,-87.6818599450344,41.91750995614298,Liquor Store
"3201 W Bryn Mawr Ave, Chicago, Illinois, 60659",(773) 267-2401,60659,-87.70909999999998,41.98305000000005,Liquor Store
"3318 W Bryn Mawr Ave, Chicago, Illinois, 60659",(773) 279-8020,60659,-87.71214002553518,41.983060026112184,Liquor Store
"3308 N Western Ave, Chicago, Illinois, 60618",(773) 935-4010,60618,-87.68864999999994,41.94128000000006,Liquor Store
"4333 W Irving Park Rd, Chicago, Illinois, 60641",(773) 777-4350,60641,-87.73700999999994,41.953500000000076,Liquor Store
"2937 W Irving Park Rd, Chicago, Illinois, 60618",(773) 478-7575,60618,-87.70212999999995,41.95393000000007,Liquor Store
"3411 W Irving Park Rd, Chicago, Illinois, 60618",(773) 279-9762,60618,-87.71340999999995,41.95383998831461,Liquor Store
"4234 N Kedzie Ave, Chicago, Illinois, 60618",(773) 584-6120,60618,-87.70840003664368,41.958180069392355,Liquor Store
"3755 W Montrose Ave, Chicago, Illinois, 60618",(773) 583-1799,60618,-87.72265998167809,41.96085993782108,Liquor Store
"3249 W Montrose Ave, Chicago, Illinois, 60618",(773) 267-2344,60618,-87.71009002553518,41.961139941139315,Liquor Store
"3647 W Diversey Ave, Chicago, Illinois, 60647",(773) 772-0388,60647,-87.71904999999998,41.93186999942316,Liquor Store
"2705 N Elston Ave, Chicago, Illinois, 60647",(773) 235-8370,60647,-87.68561993060764,41.93092999610493,Liquor Store
"2305 N Milwaukee Ave, Chicago, Illinois, 60647",(773) 289-3801,60647,-87.69771999999995,41.92315000000008,Liquor Store
"2359 N Milwaukee Ave, Chicago, Illinois, 60647",(872) 206-2774,60647,-87.69920996667445,41.92407000779031,Liquor Store
"3800 W Fullerton Ave, Chicago, Illinois, 60647",(773) 235-5016,60647,-87.72242999999997,41.92471000000006,Liquor Store
"3855 W Fullerton Ave, Chicago, Illinois, 60647",(773) 235-7825,60647,-87.72407002553518,41.92448998110127,Liquor Store
"3575 W Fullerton Ave, Chicago, Illinois, 60647",(773) 252-0772,60647,-87.71684996667447,41.92442991949926,Liquor Store
"3740 W Fullerton Ave, Chicago, Illinois, 60647",(773) 799-8483,60647,-87.72123002553519,41.92458004443409,Liquor Store
"2051 N California Ave, Chicago, Illinois, 60647",(773) 276-8888,60647,-87.69720999942302,41.91906005107051,Liquor Store
"2528 N California Ave, Chicago, Illinois, 60647",(773) 384-0699,60647,-87.69752006996917,41.92754000000008,Liquor Store
"3211 N Cicero Ave, Chicago, Illinois, 60641",(773) 481-2071,60641,-87.74683999999996,41.93919000000005,Liquor Store
"4118 N Cicero Ave, Chicago, Illinois, 60641",(773) 481-2500,60641,-87.7473700155805,41.95583000000005,Liquor Store
"5306 N Damen Ave, Chicago, Illinois, 60625",,60625,-87.67948999999999,41.97810000000004,Liquor Store
"4753 N Lincoln Ave, Chicago, Illinois, 60625",(773) 293-4559,60625,-87.68802999999997,41.96789000000007,Liquor Store
"4603 N Lincoln Ave, Chicago, Illinois, 60625",(773) 275-7600,60625,-87.68620999999996,41.965100000000064,Liquor Store
"5077 N Lincoln Ave, Chicago, Illinois, 60625",(773) 271-7006,60625,-87.69186999999994,41.97376000000003,Liquor Store
"5333 N Lincoln Ave, Chicago, Illinois, 60625",(630) 408-1740,60625,-87.69260999999995,41.97863000000007,Liquor Store
"2312 W Leland Ave, Chicago, Illinois, 60625",(773) 784-2314,60625,-87.68756999999994,41.96682000000004,Liquor Store
"2731 W Lawrence Ave, Chicago, Illinois, 60625",(773) 506-0169,60625,-87.69751002553517,41.968509999423134,Liquor Store
"2733 W Lawrence Ave, Chicago, Illinois, 60625",(773) 989-7959,60625,-87.69757999999996,41.96851000000004,Liquor Store
"2741 W Lawrence Ave, Chicago, Illinois, 60625",(773) 784-9921,60625,-87.69788999999997,41.96851000000004,Liquor Store
"2629 W Wilson Ave, Chicago, Illinois, 60625",(312) 206-9444,60625,-87.69438000836716,41.96478999942315,Liquor Store
"4634 N Western Ave, Chicago, Illinois, 60625",(773) 561-0463,60625,-87.68884000447206,41.96600999610492,Liquor Store
"3021 N Cicero Ave, Chicago, Illinois, 60641",(773) 777-7116,60641,-87.7467499588842,41.93587002553528,Liquor Store
"4829 N Kedzie Ave, Chicago, Illinois, 60625",(773) 583-6098,60625,-87.70830999999998,41.969880000000046,Liquor Store
"4733 N Kedzie Ave, Chicago, Illinois, 60625",(773) 583-2322,60625,-87.7082399267125,41.96758001110855,Liquor Store
"4510 N Kedzie Ave, Chicago, Illinois, 60625",(773) 478-4230,60625,-87.70832999999999,41.96339000000006,Liquor Store
"4657 N Kedzie Ave, Chicago, Illinois, 60625",(773) 267-6702,60625,-87.70839995167083,41.96638000000007,Liquor Store
"3455 W Lawrence Ave, Chicago, Illinois, 60625",(773) 604-8820,60625,-87.71556997446476,41.96834999942314,Liquor Store
"3540 W Lawrence Ave, Chicago, Illinois, 60625",(773) 983-6818,60625,-87.71756999999997,41.96837000000005,Liquor Store
"2048 W Armitage Ave, Chicago, Illinois, 60647",(773) 227-6700,60647,-87.67966999999999,41.91774000000004,Liquor Store
"1944 N Oakley Ave, Chicago, Illinois, 60647",(773) 276-6060,60647,-87.68499001889876,41.91748997446484,Liquor Store
"4240 W Irving Park Rd, Chicago, Illinois, 60641",(773) 930-3073,60641,-87.73425999999995,41.95359001168548,Liquor Store
"4419 W Montrose Ave, Chicago, Illinois, 60641",(773) 916-6421,60641,-87.73946994892952,41.96078995946117,Liquor Store
"2323 N Milwaukee Ave, Chicago, Illinois, 60647",(773) 227-2749,60647,-87.69821993392587,41.92347003332555,Liquor Store
"2700 N Western Ave, Chicago, Illinois, 60647",(773) 235-2930,60647,-87.68795004443398,41.9304999233944,Liquor Store
"4560 N Lincoln Ave, Chicago, Illinois, 60625",(773) 561-6198,60625,-87.68600007328742,41.964709956142954,Liquor Store
"341 W 79th St, Chicago, Illinois, 60620",(773) 994-0318,60620,-87.63344006939228,41.75058998889155,Liquor Store
"7129 S State St, Chicago, Illinois, 60619",(773) 483-3233,60619,-87.62486994056233,41.76471996335632,Liquor Store
"233 E 75th St, Chicago, Illinois, 60619",(773) 224-7500,60619,-87.61850999999996,41.758320000000026,Liquor Store
"2001 W 71st St, Chicago, Illinois, 60636",(773) 471-6508,60636,-87.6737399489295,41.76476999942315,Liquor Store
"2101 W 74th St, Chicago, Illinois, 60636",(773) 434-6800,60636,-87.6766000477522,41.759229992209775,Liquor Store
"8112 S Vincennes Ave, Chicago, Illinois, 60620",(773) 783-1818,60620,-87.63528004111573,41.74669007660571,Liquor Store
"10033 S Western Ave, Chicago, Illinois, 60643",(773) 233-7579,60643,-87.68172991892223,41.710810025535295,Liquor Store
"8201 S Racine Ave, Chicago, Illinois, 60620",(312) 666-6465,60620,-87.65356996999267,41.74473002553526,Liquor Store
"1411 W 87th St, Chicago, Illinois, 60620",(773) 445-0990,60620,-87.65891994892951,41.73568998499643,Liquor Store
"1621 W 87th St, Chicago, Illinois, 60620",(773) 233-4372,60620,-87.66408999999999,41.73575000000005,Liquor Store
"8611 S Ashland Ave, Chicago, Illinois, 60620",(773) 239-8809,60620,-87.66306997720605,41.73713002553529,Liquor Store
"9945 S Halsted St, Chicago, Illinois, 60628",(773) 238-3100,60628,-87.64279994113923,41.71274006275591,Liquor Store
"2501 W 95th St, Evergreen Park, Illinois, 60805",(708) 229-0370,60805,-87.68471001110849,41.72088995556607,Liquor Store
"2701 W North Ave, Chicago, Illinois, 60647",(773) 276-2220,60647,-87.69524994445746,41.90992996335634,Liquor Store
"2204 W North Ave, Chicago, Illinois, 60647",(773) 252-4400,60647,-87.68268999999998,41.91039007718262,Liquor Store
"1560 N Damen Ave, Chicago, Illinois, 60622",(773) 360-7386,60622,-87.6774900805008,41.909960011108566,Liquor Store
"1537 N Milwaukee Ave, Chicago, Illinois, 60622",(773) 342-2834,60622,-87.67587993392588,41.909420073287514,Liquor Store
"2421 W North Ave, Chicago, Illinois, 60647",(773) 697-7114,60647,-87.68809999999996,41.910279930030825,Liquor Store
"2701 S Lawndale Ave, Chicago, Illinois, 60623",(773) 762-8715,60623,-87.71711993003073,41.84239002553528,Liquor Store
"3058 S Avers Ave, Chicago, Illinois, 60623",(773) 542-1522,60623,-87.72072006275583,41.83705002553529,Liquor Store
"2858 S Pulaski Rd, Chicago, Illinois, 60623",(773) 762-5921,60623,-87.72442006275581,41.838880000000074,Liquor Store
"3859 W 26th St, Chicago, Illinois, 60623",(773) 277-8944,60623,-87.72191002553518,41.84427997388792,Liquor Store
"3808 W 26th St, Chicago, Illinois, 60623",(773) 823-1174,60623,-87.71993999999995,41.84435000000008,Liquor Store
"4135 W 26th St, Chicago, Illinois, 60623",(773) 521-2658,60623,-87.72838999999999,41.844189955566044,Liquor Store
"4224 W 26th St, Chicago, Illinois, 60623",(773) 542-8121,60623,-87.7304800255352,41.84420000057696,Liquor Store
"3748 W 26th St, Chicago, Illinois, 60623",(773) 277-8777,60623,-87.71919002553517,41.844350022217064,Liquor Store
"4151 W 26th St, Chicago, Illinois, 60623",(773) 521-7847,60623,-87.7289500255352,41.844169981101295,Liquor Store
"1457 S Kostner Ave, Chicago, Illinois, 60623",(773) 521-9198,60623,-87.73477994445747,41.860670025535285,Liquor Store
"2310 S Pulaski Rd, Chicago, Illinois, 60623",(773) 277-3095,60623,-87.72495004385705,41.84949992772317,Liquor Store
"617 S Pulaski Rd, Chicago, Illinois, 60624",(773) 826-9666,60624,-87.72539999163278,41.872940025535286,Liquor Store
"236 N Pulaski Rd, Chicago, Illinois, 60624",(773) 265-6328,60624,-87.72579001168536,41.88446000000005,Liquor Store
"3927 W 5th Ave, Chicago, Illinois, 60624",(773) 826-3110,60624,-87.72407997056959,41.87316005107049,Liquor Store
"3949 W Devon Ave, Chicago, Illinois, 60659",(773) 539-0200,60659,-87.72835999999995,41.99717000000004,Liquor Store
"1414 W Devon Ave, Chicago, Illinois, 60660",(773) 761-7054,60660,-87.6663600255352,41.99814005886078,Liquor Store
"6347 N Rockwell St, Chicago, Illinois, 60659",(773) 274-7720,60659,-87.69472999999994,41.99714000000006,Liquor Store
"6000 N Lincoln Ave, Chicago, Illinois, 60659",(773) 338-0610,60659,-87.70740999999998,41.99039000000005,Liquor Store
"2243 W Devon Ave, Chicago, Illinois, 60659",(773) 743-6934,60659,-87.68668997446474,41.997789981101285,Liquor Store
"2308 W Devon Ave, Chicago, Illinois, 60659",(773) 262-8001,60659,-87.687989937821,41.997800007790325,Liquor Store
"2255 W Devon Ave, Chicago, Illinois, 60659",(773) 274-2255,60659,-87.68712999999997,41.997780000000034,Liquor Store
"2907 W Devon Ave, Chicago, Illinois, 60659",(773) 274-6700,60659,-87.70246997056958,41.997489999423124,Liquor Store
"2840 W Devon Ave, Chicago, Illinois, 60659",(773) 743-2800,60659,-87.70132007328739,41.99756002611218,Liquor Store
"2505 W Devon Ave, Chicago, Illinois, 60659",(773) 274-6667,60659,-87.69272999999998,41.997690000000034,Liquor Store
"3102 W Devon Ave, Chicago, Illinois, 60659",(773) 856-0714,60659,-87.70728999999994,41.99765000000008,Liquor Store
"2643 W Devon Ave, Chicago, Illinois, 60659",(773) 761-4909,60659,-87.69645998167813,41.99760992281745,Liquor Store
"2345 W Devon Ave, Chicago, Illinois, 60659",(773) 743-7272,60659,-87.68926999999996,41.99772992281749,Liquor Store
"2916 W Devon Ave, Chicago, Illinois, 60659",(773) 761-3424,60659,-87.70282007660563,41.9975300261122,Liquor Store
"6408 N Campbell Ave, Chicago, Illinois, 60645",(773) 262-7173,60645,-87.69235999999995,41.997960000000035,Liquor Store
"6411 N Western Ave, Chicago, Illinois, 60645",(773) 381-3333,60645,-87.68983999999995,41.99813000000006,Liquor Store
"6421 N Western Ave, Chicago, Illinois, 60645",(773) 381-1000,60645,-87.68984996999271,41.99843005107049,Liquor Store
"1050 W Bryn Mawr Ave, Chicago, Illinois, 60660",(872) 208-5849,60660,-87.65705999999994,41.98369000000008,Liquor Store
"6155 N Broadway St, Chicago, Illinois, 60660",(773) 764-0714,60660,-87.66036994445747,41.993910025535286,Liquor Store
"242 E 103rd St, Chicago, Illinois, 60628",(773) 468-6900,60628,-87.61697999999996,41.70729000000006,Liquor Store
"3141 W 71st St, Chicago, Illinois, 60629",(773) 778-0081,60629,-87.70196997446476,41.76436992281749,Liquor Store
"3253 W 63rd St, Chicago, Illinois, 60629",(773) 925-4711,60629,-87.70526999999998,41.77892000000003,Liquor Store
"6558 S Kedzie Ave, Chicago, Illinois, 60629",(773) 863-1015,60629,-87.70304999999996,41.77385000000004,Liquor Store
"3320 W 55th St, Chicago, Illinois, 60632",(773) 434-5460,60632,-87.70692999999994,41.79349000057698,Liquor Store
"5646 S Kedzie Ave, Chicago, Illinois, 60629",(773) 476-1107,60629,-87.70348006275582,41.790259974464846,Liquor Store
"5958 S Pulaski Rd, Chicago, Illinois, 60629",(773) 284-8300,60629,-87.72290004832914,41.78424000000007,Liquor Store
"7001 S Pulaski Rd, Chicago, Illinois, 60629",(773) 585-6922,60629,-87.72238999999996,41.765820000000076,Liquor Store
"3838 W 49th St, Chicago, Illinois, 60632",(773) 847-4594,60632,-87.72041001832183,41.80427005886077,Liquor Store
"4701 W 63rd St, Chicago, Illinois, 60629",(773) 767-4353,60629,-87.73985000779022,41.77831997778308,Liquor Store
"5220 S Pulaski Rd, Chicago, Illinois, 60632",(773) 767-2900,60632,-87.72445002221698,41.797740026112194,Liquor Store
"3704 W 55th St, Chicago, Illinois, 60632",(773) 581-9052,60632,-87.71615997446474,41.79347002943044,Liquor Store
"3956 N Narragansett Ave, Chicago, Illinois, 60634",(773) 202-8000,60634,-87.78678999999994,41.952600000000075,Liquor Store
"5254 W Irving Park Rd, Chicago, Illinois, 60641",(773) 685-5126,60641,-87.75932999999998,41.95330000000007,Liquor Store
"4032 N Milwaukee Ave, Chicago, Illinois, 60641",(773) 628-7733,60641,-87.74835999999999,41.95401000000004,Liquor Store
"5635 W Montrose Ave, Chicago, Illinois, 60634",(773) 283-1944,60634,-87.76867006217894,41.96040994113934,Liquor Store
"5939 W Lawrence Ave, Chicago, Illinois, 60630",(773) 545-4464,60630,-87.77650999999997,41.96762000000007,Liquor Store
"3914 W Lawrence Ave, Chicago, Illinois, 60625",(773) 267-6838,60625,-87.72612002553518,41.96827006217902,Liquor Store
"4949 N Elston Ave, Chicago, Illinois, 60630",(773) 545-3474,60630,-87.74415998831456,41.97059004775226,Liquor Store
"4423 N Elston Ave, Chicago, Illinois, 60630",(773) 283-7400,60630,-87.73027999942303,41.961360040538935,Liquor Store
"4938 N Elston Ave, Chicago, Illinois, 60630",(773) 463-2457,60630,-87.74384006607404,41.97034993392599,Liquor Store
"5033 N Elston Ave, Chicago, Illinois, 60630",(773) 685-5888,60630,-87.74586999999997,41.97335000000004,Liquor Store
"5080 N Kimberly Ave, Chicago, Illinois, 60630",(773) 777-9804,60630,-87.74377999999996,41.97289000000006,Liquor Store
"7035 W Higgins Ave, Chicago, Illinois, 60656",(773) 631-8400,60656,-87.80369002943033,41.980389948352695,Liquor Store
"7210 W Foster Ave, Chicago, Illinois, 60656",(773) 631-7000,60656,-87.80763999999994,41.975730000000055,Liquor Store
"4343 S Pulaski Rd, Chicago, Illinois, 60632",(773) 927-4300,60632,-87.72288999610484,41.813810025535304,Liquor Store
"4718 S Pulaski Rd, Chicago, Illinois, 60632",(773) 793-2337,60632,-87.72359005554247,41.80726000000004,Liquor Store
"4450 S Kedzie Ave, Chicago, Illinois, 60632",(773) 823-9443,60632,-87.70413000447205,41.81207998167816,Liquor Store
"4616 S Kedzie Ave, Chicago, Illinois, 60632",(773) 247-4354,60632,-87.70422008050079,41.809360043857154,Liquor Store
"4601 S Kedzie Ave, Chicago, Illinois, 60632",(773) 847-7368,60632,-87.70401994445749,41.809810025535285,Liquor Store
"1215 E Gostlin St, Hammond, Indiana, 46327",(219) 853-1914,46327,-87.49939998167811,41.63268998499642,Liquor Store
"3811 S Hohman Ave, Hammond, Indiana, 46327",(219) 937-4901,46327,-87.51706997388783,41.644209930607715,Liquor Store
"3704 S Sheffield Ave, Hammond, Indiana, 46327",(219) 933-9689,46327,-87.51781006939227,41.64622005107048,Liquor Store
"5622 W Division St, Chicago, Illinois, 60651",(773) 921-5444,60651,-87.76647999999994,41.90217000000007,Liquor Store
"6620 W Irving Park Rd, Chicago, Illinois, 60634",(773) 282-3930,60634,-87.79275999999999,41.95300000000003,Liquor Store
"3111 N Central Ave, Chicago, Illinois, 60634",(773) 777-9755,60634,-87.76640999999995,41.937110000000075,Liquor Store
"2835 N Central Ave, Chicago, Illinois, 60634",(773) 283-7000,60634,-87.7662499372441,41.93238000000008,Liquor Store
"5610 W 63rd St, Chicago, Illinois, 60638",(773) 735-7383,60638,-87.76227992339426,41.77805002611217,Liquor Store
"6327 S Long Ave, Chicago, Illinois, 60638",(773) 767-5448,60638,-87.75678993724411,41.777370000000076,Liquor Store
"5512 W North Ave, Chicago, Illinois, 60639",(773) 237-4390,60639,-87.76362997446472,41.909430018898824,Liquor Store
"1324 N Pulaski Rd, Chicago, Illinois, 60651",(773) 276-5612,60651,-87.72638003722061,41.90524000000005,Liquor Store
"4111 W North Ave, Chicago, Illinois, 60639",(773) 772-0087,60639,-87.72946999999994,41.90982995556602,Liquor Store
"4117 W North Ave, Chicago, Illinois, 60639",(773) 697-8904,60639,-87.72963999999996,41.90981998110124,Liquor Store
"5330 W Belmont Ave, Chicago, Illinois, 60641",(773) 728-7243,60641,-87.76026005107042,41.938680026112195,Liquor Store
"5233 W Belmont Ave, Chicago, Illinois, 60641",(773) 205-2155,60641,-87.75803999999994,41.9386699738879,Liquor Store
"3155 N Long Ave, Chicago, Illinois, 60641",(773) 704-0414,60641,-87.76152999999994,41.938120000000026,Liquor Store
"2535 N Laramie Ave, Chicago, Illinois, 60639",(773) 889-9010,60639,-87.75622999552787,41.92700002553528,Liquor Store
"5303 N Clark St, Chicago, Illinois, 60640",(773) 561-8800,60640,-87.66831999999994,41.97814000000005,Liquor Store
"5306 N Clark St, Chicago, Illinois, 60640",(773) 271-7600,60640,-87.66836007386436,41.97827002553527,Liquor Store
"5509 N Clark St, Chicago, Illinois, 60640",(773) 275-3800,60640,-87.66847994445746,41.98211007660574,Liquor Store
"10528 S Western Ave, Chicago, Illinois, 60643",(773) 238-5580,60643,-87.68149007386435,41.70181006939235,Liquor Store
"10330 S Western Ave, Chicago, Illinois, 60643",(773) 238-2060,60643,-87.68160007386436,41.70544997446484,Liquor Store
"3604 W Grand Ave, Chicago, Illinois, 60651",(773) 278-1133,60651,-87.71657004775219,41.90250002553529,Liquor Store
"445 N Halsted St, Chicago, Illinois, 60642",(312) 421-5147,60642,-87.64755996667445,41.89037999610493,Liquor Store
"6469 N Lincoln Ave, Lincolnwood, Illinois, 60712",(847) 983-4514,60712,-87.72047992671251,41.9987199233944,Liquor Store
"3300 W Devon Ave, Lincolnwood, Illinois, 60712",(847) 329-5060,60712,-87.71222991949915,41.997580043857155,Liquor Store
"3514 W Devon Ave, Lincolnwood, Illinois, 60712",(847) 675-5820,60712,-87.71760999999998,41.99731000000003,Liquor Store
