ADDRESS,PHONE,POSTAL,LONGITUDE,LATITUDE,NAME
"802 E Northwest Hwy, Arlington Heights, Illinois, 60004",(847) 253-5439,60004,-87.97245999999996,42.08024000000006,Mariano
"545 N Hicks Rd, Palatine, Illinois, 60067",(847) 963-2807,60067,-88.03227007949023,42.120130044434056,Mariano
"Marino Ct, Itasca, Illinois, 60143",,60143,-88.00060281805625,41.988651977048804,Mariano
"1900 S Cumberland Ave, Park Ridge, Illinois, 60068",(847) 696-2360,60068,-87.83745999999996,41.98721000000006,Mariano
"7401 W Lawrence Ave, Harwood Heights, Illinois, 60706",(708) 867-8543,60706,-87.81313998889148,41.967099948209366,Mariano
"784 Skokie Blvd, Northbrook, Illinois, 60062",(847) 559-1145,60062,-87.79385999999994,42.13985000000008,Mariano
"1822 Willow Rd, Winnetka, Illinois, 60093",(847) 446-6870,60093,-87.77174991949917,42.10032003332555,Mariano
"25 Waukegan Rd, Glenview, Illinois, 60025",(847) 724-4685,60025,-87.79797003664372,42.0565399210867,Mariano
"3358 W Touhy Ave, Skokie, Illinois, 60076",(847) 763-8801,60076,-87.71368999999999,42.01269000000008,Mariano
"Marian Ln, Wilmette, Illinois, 60091",,60091,-87.74000774999999,42.078204000000014,Mariano
"3232 Lake Ave, Wilmette, Illinois, 60091",(847) 251-4261,60091,-87.75613994503439,42.08085998773772,Mariano
"1350 E Route 22, Lake Zurich, Illinois, 60047",(847) 438-4003,60047,-88.06047999999998,42.19836000000004,Mariano
"450 W Half Day Rd, Buffalo Grove, Illinois, 60089",(847) 634-8500,60089,-87.96814999999998,42.198090000000036,Mariano
"2575 W Golf Rd, Barrington, Illinois, 60010",(847) 490-2043,60010,-88.14302999999995,42.045420000000036,Mariano
"3020 Wolf Rd, Westchester, Illinois, 60154",(708) 562-4033,60154,-87.89988005395499,41.83513996941584,Mariano
"Marian Dr, Lemont, Illinois, 60439",,60439,-87.98200294881057,41.653884320836966,Mariano
"Marian Ct, Bolingbrook, Illinois, 60440",,60440,-88.05137092764976,41.70865793653698,Mariano
"Marian Dr, Homer Glen, Illinois, 60491",,60491,-87.95596724362188,41.60298287675122,Mariano
"21001 S La Grange Rd, Frankfort, Illinois, 60423",(815) 464-3376,60423,-87.84795999999994,41.50840000000005,Mariano
"4700 Gilbert Ave, Western Springs, Illinois, 60558",(708) 246-6210,60558,-87.89097999999996,41.80406000000005,Mariano
"Chicago, Illinois",,,-87.62838999999997,41.90198000000004,Mariano
"333 E Benton Pl, Chicago, Illinois, 60601",(312) 228-1349,60601,-87.61845999999997,41.885479999423126,Mariano
"40 S Halsted St, Chicago, Illinois, 60661",(312) 243-7657,60661,-87.64735003000723,41.880740007790344,Mariano
"3145 S Ashland Ave, Chicago, Illinois, 60608",(773) 247-2633,60608,-87.66418006939226,41.83581005669638,Mariano
"1500 N Clybourn Ave, Chicago, Illinois, 60610",(312) 475-9661,60610,-87.64568999999995,41.90813000000003,Mariano
"2021 W Chicago Ave, Chicago, Illinois, 60622",(773) 799-9000,60622,-87.67830000057688,41.89588995498912,Mariano
"5201 N Sheridan Rd, Chicago, Illinois, 60640",(773) 506-0558,60640,-87.65497994056231,41.97649002668914,Mariano
"1800 W Lawrence Ave, Chicago, Illinois, 60640",(773) 334-3549,60640,-87.67483000057689,41.96883002062959,Mariano
"3350 N Western Ave, Chicago, Illinois, 60618",(773) 327-2093,60618,-87.68951999999996,41.94269000000003,Mariano
"5353 N Elston Ave, Chicago, Illinois, 60630",(773) 481-6731,60630,-87.75767992555868,41.978930059437694,Mariano
"2559 W 95th St, Evergreen Park, Illinois, 60805",(708) 422-2056,60805,-87.68817999999999,41.71987000000007,Mariano
